<?xml version='1.0' encoding='utf-8'?>
<q:quakeml xmlns:my_ns="http://test.org/xmlns/0.1" xmlns:q="http://quakeml.org/xmlns/quakeml/1.2" xmlns="http://quakeml.org/xmlns/bed/1.2">
  <eventParameters publicID="smi:local/bad94ec4-dec4-4c5f-b165-eafd6dbb34e6">
    <event publicID="smi:local/2015-01-10T05-17-00">
      <preferredOriginID>smi:local/f6dfe10d-90cc-475c-94c5-0027870c2773</preferredOriginID>
      <preferredMagnitudeID>smi:local/d28dcef4-7a4a-40d4-b28d-f2f543419243</preferredMagnitudeID>
      <description>
        <text>L</text>
      </description>
      <comment id="smi:local/ecfe8d20-873a-4e4c-82a3-f0c4a89715bd">
        <text>SPEC AVERAGE  MO 15.0 ST 21.3 OM  3.4 f0 2.17 R0.6500 AL 3.33 WI 31.4 MW  4.0</text>
      </comment>
      <comment id="smi:local/18450eed-2340-4b0d-b655-2576f1902300">
        <text>SPEC SD       MO  0.2 ST 10.1 OM  0.4 f00.510 R0.1566 AL      WI      MW  0.1</text>
      </comment>
      <comment id="smi:local/4c5633f2-cc9c-40e4-9431-52561a92925d">
        <text>SPEC TURVHH N MO 14.9 ST 19.0 OM  3.0 f0 2.28 R0.5842 AL 3.42 WI 35.7 MW  3.9</text>
      </comment>
      <comment id="smi:local/2d9185c8-31f1-4423-a44c-1b0d2d081c46">
        <text>SPEC TURVHH N T 51941 K 0.000 GD  588 VS 3.60 DE 3.00 Q0440.0 QA 0.70 Q1 0.00</text>
      </comment>
      <comment id="smi:local/a2a3b8fb-68a9-4e06-b34d-3eb04595f5d7">
        <text>SPEC TACVHH N MO 15.0 ST 11.4 OM  3.1 f0 1.88 R0.7085 AL 2.26 WI 36.1 MW  3.9</text>
      </comment>
      <comment id="smi:local/57e3ef77-b829-48a9-a85d-d35d4149be42">
        <text>SPEC TACVHH N T 51921 K 0.000 GD  500 VS 3.60 DE 3.00 Q0440.0 QA 0.70 Q1 0.00</text>
      </comment>
      <comment id="smi:local/c6cbcba7-5c56-462c-8c55-45da61d1871a">
        <text>SPEC RIOVHH N MO 14.7 ST 27.8 OM  3.1 f0 3.13 R0.4256 AL 3.07 WI 22.9 MW  3.7</text>
      </comment>
      <comment id="smi:local/26d445db-b14d-41eb-b202-7c4d28d38ebc">
        <text>SPEC RIOVHH N T 51834 K 0.000 GD  263 VS 3.60 DE 3.00 Q0440.0 QA 0.70 Q1 0.00</text>
      </comment>
      <comment id="smi:local/b7448ff8-8fcd-4d19-be83-3290dee86f6c">
        <text>SPEC PCRVHH N MO 15.2 ST  8.6 OM  3.7 f0 1.39 R0.9583 AL 4.09 WI 37.4 MW  4.1</text>
      </comment>
      <comment id="smi:local/e763b9e0-9acb-454a-b46d-1508d7544b73">
        <text>SPEC PCRVHH N T 51823 K 0.000 GD  233 VS 3.60 DE 3.00 Q0440.0 QA 0.70 Q1 0.00</text>
      </comment>
      <comment id="smi:local/af48773d-067f-4c0c-890a-4990e9e4f8bb">
        <text>SPEC ORIVHH N MO 15.3 ST 39.0 OM  3.9 f0 2.17 R0.6138 AL 3.08 WI 36.5 MW  4.2</text>
      </comment>
      <comment id="smi:local/6b7fe56d-5b5a-4437-939a-dfce16fa2e0e">
        <text>SPEC ORIVHH N T 51815 K 0.000 GD  176 VS 3.60 DE 3.00 Q0440.0 QA 0.70 Q1 0.00</text>
      </comment>
      <comment id="smi:local/a3b2ff9a-7f40-4f74-8c73-f04f471dce85">
        <text>SPEC MERVHH N MO 15.0 ST 28.5 OM  3.2 f0 2.47 R0.5393 AL 3.65 WI 24.7 MW  3.9</text>
      </comment>
      <comment id="smi:local/3ec8ff0b-d0de-4880-a59f-85227ec00fb2">
        <text>SPEC MERVHH N T 51912 K 0.000 GD  437 VS 3.60 DE 3.00 Q0440.0 QA 0.70 Q1 0.00</text>
      </comment>
      <comment id="smi:local/829c6c84-0dbb-40d8-b6b5-ea651432a6a2">
        <text>SPEC CRUVHH N MO 15.1 ST 14.8 OM  4.0 f0 1.85 R0.7200 AL 3.72 WI 26.4 MW  4.0</text>
      </comment>
      <comment id="smi:local/52ec7404-ac1e-4780-a494-47f90da9c384">
        <text>SPEC CRUVHH N T 51752 K 0.000 GD 85.4 VS 3.60 DE 3.00 Q0440.0 QA 0.70 Q1 0.00</text>
      </comment>
      <comment id="smi:local/12600015-6f75-4350-a0c7-70a760273796">
        <text>OLDACT:UP  15-06-26 14:18 OP:leo  STATUS:               ID:20150110051700</text>
      </comment>
      <comment id="smi:local/5f65bd80-fdff-4f9a-9a62-0c5672789331">
        <text>OLDACT:UP  15-01-10 01:15 OP:mu   STATUS:               ID:20150110051700</text>
      </comment>
      <comment id="smi:local/45f69f0a-d54d-4897-a7f3-f9e07e247caa">
        <text>OLDACT:UP  15-01-10 01:11 OP:mu   STATUS:               ID:20150110051700</text>
      </comment>
      <comment id="smi:local/8d7dfae5-a1c3-439c-a51c-9c1b0dac10d8">
        <text>OLDACT:UP  15-01-10 01:10 OP:mu   STATUS:               ID:20150110051700</text>
      </comment>
      <comment id="smi:local/7efcb034-3cb2-49f8-a765-22ce6d6bb276">
        <text>OLDACT:UP  15-01-10 01:08 OP:mu   STATUS:               ID:20150110051700</text>
      </comment>
      <comment id="smi:local/70377307-bb1c-4220-82c6-27fab98f89fd">
        <text>OLDACT:UP  15-01-10 01:06 OP:mu   STATUS:               ID:20150110051700</text>
      </comment>
      <comment id="smi:local/166270d9-f655-404e-a1e0-74810691daf6">
        <text>OLDACT:UP  15-01-10 01:05 OP:mu   STATUS:               ID:20150110051700</text>
      </comment>
      <comment id="smi:local/102290eb-afde-42eb-ab57-59882849b75f">
        <text>OLDACT:UP  15-01-10 01:03 OP:mu   STATUS:               ID:20150110051700</text>
      </comment>
      <comment id="smi:local/e534aa5a-6c03-4571-8a89-6961911b1fa4">
        <text>OLDACT:REG 15-01-10 01:02 OP:mu   STATUS:               ID:20150110051700</text>
      </comment>
      <origin publicID="smi:local/f6dfe10d-90cc-475c-94c5-0027870c2773">
        <time>
          <value>2015-01-10T05:17:30.400000Z</value>
        </time>
        <latitude>
          <value>10.352</value>
        </latitude>
        <longitude>
          <value>-62.472</value>
        </longitude>
        <depth>
          <value>19.3</value>
        </depth>
        <quality>
          <associatedPhaseCount>24</associatedPhaseCount>
          <standardError>0.6</standardError>
          <azimuthalGap>94.0</azimuthalGap>
        </quality>
        <creationInfo>
          <agencyID>FUN</agencyID>
          <author>leo</author>
          <creationTime>2015-01-10T05:17:00.000000Z</creationTime>
        </creationInfo>
        <arrival publicID="smi:local/98f24669-0aa0-461e-a773-62b49ed6d5ea">
          <pickID>smi:local/680438d8-1ba0-41a7-968b-ae091c79585b</pickID>
          <phase>P</phase>
          <azimuth>291.0</azimuth>
          <timeResidual>-0.8</timeResidual>
          <timeWeight>1.0</timeWeight>
        </arrival>
        <arrival publicID="smi:local/5965fda4-c191-4add-a6d0-9282ad872c65">
          <pickID>smi:local/e127fa60-2414-4fbc-95c7-ee74ff403481</pickID>
          <phase>S</phase>
          <azimuth>291.0</azimuth>
          <timeResidual>-0.16</timeResidual>
          <timeWeight>1.0</timeWeight>
        </arrival>
        <arrival publicID="smi:local/675a0cd8-401b-4dd6-8759-0d38d7c28dc1">
          <pickID>smi:local/7dc7e791-c6ac-4cc4-8692-9b0791e750e8</pickID>
          <phase>P</phase>
          <azimuth>74.0</azimuth>
          <timeResidual>-0.18</timeResidual>
          <timeWeight>1.0</timeWeight>
        </arrival>
        <arrival publicID="smi:local/55d5d63d-27fb-4eef-bde2-2bc69c7b9e66">
          <pickID>smi:local/79dd86e9-6bee-4d59-bee9-b8e707b5212c</pickID>
          <phase>S</phase>
          <azimuth>74.0</azimuth>
          <timeResidual>-0.32</timeResidual>
          <timeWeight>1.0</timeWeight>
        </arrival>
        <arrival publicID="smi:local/678aec7a-a0cc-43ca-8573-16c3aa9c7268">
          <pickID>smi:local/9d65fa30-5d72-4de6-8818-ad865dbeeca6</pickID>
          <phase>P</phase>
          <azimuth>216.0</azimuth>
          <timeResidual>-0.08</timeResidual>
          <timeWeight>1.0</timeWeight>
        </arrival>
        <arrival publicID="smi:local/27755882-94a9-42ad-95c3-cd9d695b40d6">
          <pickID>smi:local/bc80e842-c41f-4907-b67b-5710de2bf38e</pickID>
          <phase>S</phase>
          <azimuth>216.0</azimuth>
          <timeResidual>0.01</timeResidual>
          <timeWeight>1.0</timeWeight>
        </arrival>
        <arrival publicID="smi:local/5fd97c1c-8be3-4b60-9f58-ab644f4805f9">
          <pickID>smi:local/371335ad-8f38-42af-9eab-9bb23aa8e760</pickID>
          <phase>P</phase>
          <azimuth>277.0</azimuth>
          <timeResidual>0.03</timeResidual>
          <timeWeight>1.0</timeWeight>
        </arrival>
        <arrival publicID="smi:local/e2a7d3d1-8742-4b97-bf12-95df7a15c6d6">
          <pickID>smi:local/52c16b1f-b566-481c-a2ac-6cc2f91494b8</pickID>
          <phase>P</phase>
          <azimuth>273.0</azimuth>
          <timeResidual>-0.52</timeResidual>
          <timeWeight>1.0</timeWeight>
        </arrival>
        <arrival publicID="smi:local/b8c7fc1f-e4a5-4959-a0dc-34b1a345994b">
          <pickID>smi:local/f900a977-6150-4feb-a912-e230b22a2700</pickID>
          <phase>S</phase>
          <azimuth>273.0</azimuth>
          <timeResidual>-0.37</timeResidual>
          <timeWeight>1.0</timeWeight>
        </arrival>
        <arrival publicID="smi:local/388b3ca1-6e00-4f48-9612-738973714984">
          <pickID>smi:local/aeae6079-7e61-45f4-a252-36d8a4037b1f</pickID>
          <phase>P</phase>
          <azimuth>24.0</azimuth>
          <timeResidual>0.53</timeResidual>
          <timeWeight>1.0</timeWeight>
        </arrival>
        <arrival publicID="smi:local/aa2b3e09-312a-4bac-a402-839f6812b6fe">
          <pickID>smi:local/8410dc3f-3f8e-4c02-b3c8-28e3199f8e70</pickID>
          <phase>P</phase>
          <azimuth>265.0</azimuth>
          <timeResidual>-0.9</timeResidual>
          <timeWeight>1.0</timeWeight>
        </arrival>
        <arrival publicID="smi:local/fe5f0df8-6669-412c-b5d4-102fe4584cbc">
          <pickID>smi:local/a6b9a6c6-f064-4e76-a0fa-fca4b1a48438</pickID>
          <phase>S</phase>
          <azimuth>265.0</azimuth>
          <timeResidual>-0.41</timeResidual>
          <timeWeight>1.0</timeWeight>
        </arrival>
        <arrival publicID="smi:local/e0545f3c-a42d-4a17-885e-602fa885a833">
          <pickID>smi:local/897547f8-bb4c-487d-8a33-fe82e944d863</pickID>
          <phase>P</phase>
          <azimuth>164.0</azimuth>
          <timeResidual>-0.5</timeResidual>
          <timeWeight>1.0</timeWeight>
        </arrival>
        <arrival publicID="smi:local/0df18b9e-97c4-4ce4-b3b1-a0e6779ec62a">
          <pickID>smi:local/cefa5243-09f7-4ae8-ac02-f7f1d9c3bc9b</pickID>
          <phase>S</phase>
          <azimuth>164.0</azimuth>
          <timeResidual>-0.05</timeResidual>
          <timeWeight>1.0</timeWeight>
        </arrival>
        <arrival publicID="smi:local/241f2a58-6bdb-4447-9578-e915eccdfd9c">
          <pickID>smi:local/04950b22-3e3d-4df7-a95f-acfdb762a0d6</pickID>
          <phase>P</phase>
          <azimuth>272.0</azimuth>
          <timeResidual>0.73</timeResidual>
          <timeWeight>1.0</timeWeight>
        </arrival>
        <arrival publicID="smi:local/0bb62e41-8aba-4d53-bdfc-26cd32665685">
          <pickID>smi:local/abb6f117-9b0b-4cec-b51f-c831505d5631</pickID>
          <phase>S</phase>
          <azimuth>272.0</azimuth>
          <timeResidual>0.23</timeResidual>
          <timeWeight>1.0</timeWeight>
        </arrival>
        <arrival publicID="smi:local/da0fba77-44fd-40c9-af3b-23b940291d6a">
          <pickID>smi:local/a4c47a6a-cced-4c08-89c2-80e22f992314</pickID>
          <phase>P</phase>
          <azimuth>254.0</azimuth>
          <timeResidual>0.13</timeResidual>
          <timeWeight>1.0</timeWeight>
        </arrival>
        <arrival publicID="smi:local/eebea9d9-ecc5-4a07-89d8-1e7fc85b2110">
          <pickID>smi:local/b3dc5b68-42e1-4892-a5bb-19d654a52879</pickID>
          <phase>S</phase>
          <azimuth>254.0</azimuth>
          <timeResidual>-0.39</timeResidual>
          <timeWeight>1.0</timeWeight>
        </arrival>
        <arrival publicID="smi:local/7049900c-3230-404f-8789-8fc4543c25ab">
          <pickID>smi:local/e68f8c09-055e-42f3-8009-957945bb4d70</pickID>
          <phase>P</phase>
          <azimuth>272.0</azimuth>
          <timeResidual>0.03</timeResidual>
          <timeWeight>1.0</timeWeight>
        </arrival>
        <arrival publicID="smi:local/3c7185c3-467b-4149-8ccb-64f8d0a55ab5">
          <pickID>smi:local/8a261a4d-8a6e-420a-b1d2-77c08e381dcf</pickID>
          <phase>P</phase>
          <azimuth>268.0</azimuth>
          <timeResidual>0.01</timeResidual>
          <timeWeight>1.0</timeWeight>
        </arrival>
        <arrival publicID="smi:local/e5b394af-06e4-4b25-a611-b55ebdd10f17">
          <pickID>smi:local/c6014534-6538-4a45-bef7-b39ffb55262e</pickID>
          <phase>S</phase>
          <azimuth>268.0</azimuth>
          <timeResidual>-0.62</timeResidual>
          <timeWeight>1.0</timeWeight>
        </arrival>
        <arrival publicID="smi:local/8d7f2fb6-4bca-485d-a3d4-dcecc4788633">
          <pickID>smi:local/21d1b582-be8d-431a-a170-236a21570bd5</pickID>
          <phase>P</phase>
          <azimuth>167.0</azimuth>
          <timeResidual>-0.78</timeResidual>
          <timeWeight>1.0</timeWeight>
        </arrival>
        <arrival publicID="smi:local/7cca50bc-b647-45c6-a69d-f7f4ff6f65e6">
          <pickID>smi:local/de6843d4-f655-4c47-823b-629cb273733a</pickID>
          <phase>P</phase>
          <azimuth>272.0</azimuth>
          <timeResidual>-0.2</timeResidual>
          <timeWeight>1.0</timeWeight>
        </arrival>
        <arrival publicID="smi:local/caba1502-b22f-401d-b0d0-27e11e664e7d">
          <pickID>smi:local/309a0ac3-d20c-4176-aee5-b588f3025988</pickID>
          <phase>S</phase>
          <azimuth>272.0</azimuth>
          <timeResidual>-0.9</timeResidual>
          <timeWeight>1.0</timeWeight>
        </arrival>
        <arrival publicID="smi:local/3b299c62-86a5-44a5-b98f-d5dca8bf794d">
          <pickID>smi:local/188349c7-48c1-4aad-bf8e-64dc2d2d7e81</pickID>
          <phase>P</phase>
          <azimuth>256.0</azimuth>
          <timeResidual>-0.26</timeResidual>
          <timeWeight>1.0</timeWeight>
        </arrival>
        <arrival publicID="smi:local/f829f600-5880-48e0-883b-62c8bb63b51b">
          <pickID>smi:local/1833c2ef-9a45-47c9-8444-c121a1d59774</pickID>
          <phase>P</phase>
          <azimuth>266.0</azimuth>
          <timeResidual>0.01</timeResidual>
          <timeWeight>1.0</timeWeight>
        </arrival>
        <arrival publicID="smi:local/daba57f8-3a70-4c56-9773-425704e3760a">
          <pickID>smi:local/b9f10ec9-8608-483a-9d4f-997164bf7692</pickID>
          <phase>P</phase>
          <azimuth>277.0</azimuth>
          <timeResidual>-0.4</timeResidual>
          <timeWeight>1.0</timeWeight>
        </arrival>
        <arrival publicID="smi:local/5dcb1801-cf3f-430f-a1b5-fd1498025947">
          <pickID>smi:local/a40d73bb-2d12-4588-836f-8011978fe18e</pickID>
          <phase>P</phase>
          <azimuth>264.0</azimuth>
          <timeResidual>1.7</timeResidual>
          <timeWeight>1.0</timeWeight>
        </arrival>
        <arrival publicID="smi:local/f7f74745-54af-4d0c-99c9-fce6c1be4caa">
          <pickID>smi:local/11e98827-394b-4b60-bd02-0381ee440339</pickID>
          <phase>P</phase>
          <azimuth>227.0</azimuth>
          <timeResidual>0.23</timeResidual>
          <timeWeight>1.0</timeWeight>
        </arrival>
        <arrival publicID="smi:local/ee53eb04-d9a0-4d05-af09-2df5c8269980">
          <pickID>smi:local/2e085375-441f-4eb2-bfbd-357804500925</pickID>
          <phase>P</phase>
          <azimuth>245.0</azimuth>
          <timeResidual>1.04</timeResidual>
          <timeWeight>1.0</timeWeight>
        </arrival>
        <arrival publicID="smi:local/78970b4a-de15-4d8c-80ed-9ee69b795630">
          <pickID>smi:local/2d3f310f-d51a-491b-8014-acb31e330bdb</pickID>
          <phase>P</phase>
          <azimuth>265.0</azimuth>
          <timeResidual>1.67</timeResidual>
          <timeWeight>1.0</timeWeight>
        </arrival>
        <arrival publicID="smi:local/cc607a2b-4c19-4690-b8a8-748d012fa1e9">
          <pickID>smi:local/b2952f88-c33c-4d2f-b526-5b4c542eb4dd</pickID>
          <phase>P</phase>
          <azimuth>260.0</azimuth>
          <timeResidual>0.66</timeResidual>
          <timeWeight>1.0</timeWeight>
        </arrival>
        <arrival publicID="smi:local/a6cbf133-9f04-4613-9fc4-0731227b1487">
          <pickID>smi:local/114171a6-2ba4-466f-b818-26b59348db9c</pickID>
          <phase>P</phase>
          <azimuth>248.0</azimuth>
          <timeResidual>1.08</timeResidual>
          <timeWeight>1.0</timeWeight>
        </arrival>
        <arrival publicID="smi:local/e90a2310-9f25-4360-a476-cb5ac766dcb7">
          <pickID>smi:local/a79c4cd2-c6c5-4546-95f8-72239ce77913</pickID>
          <phase>P</phase>
          <azimuth>260.0</azimuth>
          <timeResidual>-0.16</timeResidual>
          <timeWeight>1.0</timeWeight>
        </arrival>
      </origin>
      <magnitude publicID="smi:local/d28dcef4-7a4a-40d4-b28d-f2f543419243">
        <mag>
          <value>4.0</value>
        </mag>
        <type>MW</type>
        <creationInfo>
          <agencyID>FUN</agencyID>
        </creationInfo>
      </magnitude>
      <pick publicID="smi:local/680438d8-1ba0-41a7-968b-ae091c79585b">
        <time>
          <value>2015-01-10T05:17:43.700000Z</value>
        </time>
        <waveformID channelCode="BHZ" locationCode=" " networkCode="UK" stationCode="CRUV"></waveformID>
        <onset>emergent</onset>
        <phaseHint>P</phaseHint>
        <polarity>negative</polarity>
        <evaluationMode>automatic</evaluationMode>
      </pick>
      <pick publicID="smi:local/e127fa60-2414-4fbc-95c7-ee74ff403481">
        <time>
          <value>2015-01-10T05:17:54.760000Z</value>
        </time>
        <waveformID channelCode="BHN" locationCode=" " networkCode="UK" stationCode="CRUV"></waveformID>
        <onset>emergent</onset>
        <phaseHint>S</phaseHint>
        <polarity>undecidable</polarity>
        <evaluationMode>automatic</evaluationMode>
      </pick>
      <pick publicID="smi:local/7dc7e791-c6ac-4cc4-8692-9b0791e750e8">
        <time>
          <value>2015-01-10T05:17:50.300000Z</value>
        </time>
        <waveformID channelCode="BHZ" locationCode=" " networkCode="UK" stationCode="TRN"></waveformID>
        <onset>emergent</onset>
        <phaseHint>P</phaseHint>
        <polarity>negative</polarity>
        <evaluationMode>automatic</evaluationMode>
      </pick>
      <pick publicID="smi:local/79dd86e9-6bee-4d59-bee9-b8e707b5212c">
        <time>
          <value>2015-01-10T05:18:04.990000Z</value>
        </time>
        <waveformID channelCode="BHN" locationCode=" " networkCode="UK" stationCode="TRN"></waveformID>
        <onset>emergent</onset>
        <phaseHint>S</phaseHint>
        <polarity>undecidable</polarity>
        <evaluationMode>automatic</evaluationMode>
      </pick>
      <pick publicID="smi:local/9d65fa30-5d72-4de6-8818-ad865dbeeca6">
        <time>
          <value>2015-01-10T05:17:56.920000Z</value>
        </time>
        <waveformID channelCode="BHZ" locationCode=" " networkCode="UK" stationCode="ORIV"></waveformID>
        <onset>emergent</onset>
        <phaseHint>P</phaseHint>
        <polarity>undecidable</polarity>
        <evaluationMode>automatic</evaluationMode>
      </pick>
      <pick publicID="smi:local/bc80e842-c41f-4907-b67b-5710de2bf38e">
        <time>
          <value>2015-01-10T05:18:16.680000Z</value>
        </time>
        <waveformID channelCode="BHN" locationCode=" " networkCode="UK" stationCode="ORIV"></waveformID>
        <onset>emergent</onset>
        <phaseHint>S</phaseHint>
        <polarity>undecidable</polarity>
        <evaluationMode>automatic</evaluationMode>
      </pick>
      <pick publicID="smi:local/371335ad-8f38-42af-9eab-9bb23aa8e760">
        <time>
          <value>2015-01-10T05:17:58.730000Z</value>
        </time>
        <waveformID channelCode="BHZ" locationCode=" " networkCode="UK" stationCode="MAN"></waveformID>
        <onset>emergent</onset>
        <phaseHint>P</phaseHint>
        <polarity>undecidable</polarity>
        <evaluationMode>automatic</evaluationMode>
      </pick>
      <pick publicID="smi:local/52c16b1f-b566-481c-a2ac-6cc2f91494b8">
        <time>
          <value>2015-01-10T05:17:58.100000Z</value>
        </time>
