<?xml version='1.0' encoding='utf-8'?>
<q:quakeml xmlns:my_ns="http://test.org/xmlns/0.1" xmlns:q="http://quakeml.org/xmlns/quakeml/1.2" xmlns="http://quakeml.org/xmlns/bed/1.2">
  <eventParameters publicID="smi:local/c0047f23-09dd-4867-bc3c-afdb855a028d">
    <event publicID="smi:local/2015-01-10T05-17-00">
      <preferredOriginID>smi:local/a281948a-7981-4b2c-9ff0-6ea947ed0ef8</preferredOriginID>
      <preferredMagnitudeID>smi:local/b9aecbd7-97a3-462d-abad-12418568e0f6</preferredMagnitudeID>
      <description>
        <text>L</text>
      </description>
      <comment id="smi:local/eccfdd57-8356-4d62-a49a-632e275e4b0d">
        <text>SPEC AVERAGE  MO 15.0 ST 21.3 OM  3.4 f0 2.17 R0.6500 AL 3.33 WI 31.4 MW  4.0</text>
      </comment>
      <comment id="smi:local/15bd37eb-1a87-4123-b35b-5861b9e153ba">
        <text>SPEC SD       MO  0.2 ST 10.1 OM  0.4 f00.510 R0.1566 AL      WI      MW  0.1</text>
      </comment>
      <comment id="smi:local/f39016d2-0c90-4e5f-9a6d-505c90a7b405">
        <text>SPEC TURVHH N MO 14.9 ST 19.0 OM  3.0 f0 2.28 R0.5842 AL 3.42 WI 35.7 MW  3.9</text>
      </comment>
      <comment id="smi:local/3bd5fb29-d552-4d7c-82ca-2177c33542bd">
        <text>SPEC TURVHH N T 51941 K 0.000 GD  588 VS 3.60 DE 3.00 Q0440.0 QA 0.70 Q1 0.00</text>
      </comment>
      <comment id="smi:local/ecd54f1d-dea9-4ac8-8570-6fd943088704">
        <text>SPEC TACVHH N MO 15.0 ST 11.4 OM  3.1 f0 1.88 R0.7085 AL 2.26 WI 36.1 MW  3.9</text>
      </comment>
      <comment id="smi:local/9c9ac39e-b1db-4570-8592-587d26c834b6">
        <text>SPEC TACVHH N T 51921 K 0.000 GD  500 VS 3.60 DE 3.00 Q0440.0 QA 0.70 Q1 0.00</text>
      </comment>
      <comment id="smi:local/cf397fb1-23dc-4875-bdc0-620b312f5f63">
        <text>SPEC RIOVHH N MO 14.7 ST 27.8 OM  3.1 f0 3.13 R0.4256 AL 3.07 WI 22.9 MW  3.7</text>
      </comment>
      <comment id="smi:local/c183324b-d192-4728-89e0-30238c3ddac9">
        <text>SPEC RIOVHH N T 51834 K 0.000 GD  263 VS 3.60 DE 3.00 Q0440.0 QA 0.70 Q1 0.00</text>
      </comment>
      <comment id="smi:local/e3fd2f95-adce-4694-ac25-067ba07eb04e">
        <text>SPEC PCRVHH N MO 15.2 ST  8.6 OM  3.7 f0 1.39 R0.9583 AL 4.09 WI 37.4 MW  4.1</text>
      </comment>
      <comment id="smi:local/671388ee-77a9-4c29-b444-b0c54d7fd891">
        <text>SPEC PCRVHH N T 51823 K 0.000 GD  233 VS 3.60 DE 3.00 Q0440.0 QA 0.70 Q1 0.00</text>
      </comment>
      <comment id="smi:local/fb102ef9-c1d0-4d55-9b96-eda43b02af33">
        <text>SPEC ORIVHH N MO 15.3 ST 39.0 OM  3.9 f0 2.17 R0.6138 AL 3.08 WI 36.5 MW  4.2</text>
      </comment>
      <comment id="smi:local/cc15da87-8bc5-4d74-9b85-509f349c987b">
        <text>SPEC ORIVHH N T 51815 K 0.000 GD  176 VS 3.60 DE 3.00 Q0440.0 QA 0.70 Q1 0.00</text>
      </comment>
      <comment id="smi:local/f20fadf6-001e-404c-9f9c-a80d6fc0e122">
        <text>SPEC MERVHH N MO 15.0 ST 28.5 OM  3.2 f0 2.47 R0.5393 AL 3.65 WI 24.7 MW  3.9</text>
      </comment>
      <comment id="smi:local/247b8c1c-a477-4ce4-ab0e-00670654cfdd">
        <text>SPEC MERVHH N T 51912 K 0.000 GD  437 VS 3.60 DE 3.00 Q0440.0 QA 0.70 Q1 0.00</text>
      </comment>
      <comment id="smi:local/c2e6b6fa-2d6c-470c-a98c-265c376fee30">
        <text>SPEC CRUVHH N MO 15.1 ST 14.8 OM  4.0 f0 1.85 R0.7200 AL 3.72 WI 26.4 MW  4.0</text>
      </comment>
      <comment id="smi:local/2018e031-3f81-4dcd-8df8-51ed4601674d">
        <text>SPEC CRUVHH N T 51752 K 0.000 GD 85.4 VS 3.60 DE 3.00 Q0440.0 QA 0.70 Q1 0.00</text>
      </comment>
      <comment id="smi:local/49011fb0-2c4b-4aba-89f7-9751466e8eaa">
        <text>OLDACT:UP  15-06-26 14:18 OP:leo  STATUS:               ID:20150110051700</text>
      </comment>
      <comment id="smi:local/21c65f8e-f45a-4053-9de5-044311bc857f">
        <text>OLDACT:UP  15-01-10 01:15 OP:mu   STATUS:               ID:20150110051700</text>
      </comment>
      <comment id="smi:local/a5da08aa-11cf-4395-8f6d-59c4cb4445f2">
        <text>OLDACT:UP  15-01-10 01:11 OP:mu   STATUS:               ID:20150110051700</text>
      </comment>
      <comment id="smi:local/5e8ea4fa-2ff0-4084-bd0d-4c416d3aca12">
        <text>OLDACT:UP  15-01-10 01:10 OP:mu   STATUS:               ID:20150110051700</text>
      </comment>
      <comment id="smi:local/dc1e1937-bd5e-483a-b009-80d2e9bc69a0">
        <text>OLDACT:UP  15-01-10 01:08 OP:mu   STATUS:               ID:20150110051700</text>
      </comment>
      <comment id="smi:local/7f4d95df-d5dc-443a-9411-5270489a3cbc">
        <text>OLDACT:UP  15-01-10 01:06 OP:mu   STATUS:               ID:20150110051700</text>
      </comment>
      <comment id="smi:local/6e0f7960-3c38-4bbb-80d7-5129cb9bff6d">
        <text>OLDACT:UP  15-01-10 01:05 OP:mu   STATUS:               ID:20150110051700</text>
      </comment>
      <comment id="smi:local/46dc44c9-05cc-4e6a-9192-38124be3890e">
        <text>OLDACT:UP  15-01-10 01:03 OP:mu   STATUS:               ID:20150110051700</text>
      </comment>
      <comment id="smi:local/232a8b4a-37f4-4887-9f83-575c88e0869f">
        <text>OLDACT:REG 15-01-10 01:02 OP:mu   STATUS:               ID:20150110051700</text>
      </comment>
      <origin publicID="smi:local/a281948a-7981-4b2c-9ff0-6ea947ed0ef8">
        <time>
          <value>2015-01-10T05:17:30.400000Z</value>
        </time>
        <latitude>
          <value>10.352</value>
        </latitude>
        <longitude>
          <value>-62.472</value>
        </longitude>
        <depth>
          <value>19.3</value>
        </depth>
        <quality>
          <associatedPhaseCount>24</associatedPhaseCount>
          <standardError>0.6</standardError>
          <azimuthalGap>94.0</azimuthalGap>
        </quality>
        <creationInfo>
          <agencyID>FUN</agencyID>
          <author>leo</author>
          <creationTime>2015-01-10T05:17:00.000000Z</creationTime>
        </creationInfo>
        <arrival publicID="smi:local/564ad258-70f8-40de-a7a4-02e723e3a99d">
          <pickID>smi:local/e2dd0cff-a780-4a2c-87fb-69c6f2c9ca4d</pickID>
          <phase>P</phase>
          <azimuth>291.0</azimuth>
          <timeResidual>-0.8</timeResidual>
          <timeWeight>1.0</timeWeight>
        </arrival>
        <arrival publicID="smi:local/355fdf1d-c188-4493-9f05-e5501122d4fe">
          <pickID>smi:local/deb51779-bebd-4297-af87-3020dc1ce656</pickID>
          <phase>S</phase>
          <azimuth>291.0</azimuth>
          <timeResidual>-0.16</timeResidual>
          <timeWeight>1.0</timeWeight>
        </arrival>
        <arrival publicID="smi:local/de44a52c-9e9d-4634-a8e7-27d1befb01aa">
          <pickID>smi:local/9f0cce3d-0161-454e-bbd3-d9d03be4cce8</pickID>
          <phase>P</phase>
          <azimuth>74.0</azimuth>
          <timeResidual>-0.18</timeResidual>
          <timeWeight>1.0</timeWeight>
        </arrival>
        <arrival publicID="smi:local/4f7a9ebc-3578-4bc5-b870-06b5ca55ec25">
          <pickID>smi:local/165ee7d8-8c3c-4cc9-bd76-c9630efa8964</pickID>
          <phase>S</phase>
          <azimuth>74.0</azimuth>
          <timeResidual>-0.32</timeResidual>
          <timeWeight>1.0</timeWeight>
        </arrival>
        <arrival publicID="smi:local/44f66ad5-a0da-415f-a2f9-4bc2a3322483">
          <pickID>smi:local/3a410b70-061d-40be-932d-d7ccade8d63f</pickID>
          <phase>P</phase>
          <azimuth>216.0</azimuth>
          <timeResidual>-0.08</timeResidual>
          <timeWeight>1.0</timeWeight>
        </arrival>
        <arrival publicID="smi:local/d3a6c46d-af80-4c33-8c81-ed40c367d4bb">
          <pickID>smi:local/e336ac9c-391c-4947-a0e9-dc6f7ae180bd</pickID>
          <phase>S</phase>
          <azimuth>216.0</azimuth>
          <timeResidual>0.01</timeResidual>
          <timeWeight>1.0</timeWeight>
        </arrival>
        <arrival publicID="smi:local/0fad0e17-10d0-4651-8e57-07df6da6e333">
          <pickID>smi:local/1e0bfeed-1cd4-45ff-b8bd-9dcf86b275ba</pickID>
          <phase>P</phase>
          <azimuth>277.0</azimuth>
          <timeResidual>0.03</timeResidual>
          <timeWeight>1.0</timeWeight>
        </arrival>
        <arrival publicID="smi:local/ca18ab2e-1568-457a-91db-39bfe5d50505">
          <pickID>smi:local/5ca0925d-2e55-49dc-8c9f-d7ba9ebad56d</pickID>
          <phase>P</phase>
          <azimuth>273.0</azimuth>
          <timeResidual>-0.52</timeResidual>
          <timeWeight>1.0</timeWeight>
        </arrival>
        <arrival publicID="smi:local/f9fa2355-a304-42e8-b194-65feb659936a">
          <pickID>smi:local/b9b32abc-0e0f-4197-a1d1-417308de08f4</pickID>
          <phase>S</phase>
          <azimuth>273.0</azimuth>
          <timeResidual>-0.37</timeResidual>
          <timeWeight>1.0</timeWeight>
        </arrival>
        <arrival publicID="smi:local/b2bcb2b4-e490-4bd0-a979-e402d7a5882e">
          <pickID>smi:local/09cc1fc6-bde1-48cf-b240-2827f5182228</pickID>
          <phase>P</phase>
          <azimuth>24.0</azimuth>
          <timeResidual>0.53</timeResidual>
          <timeWeight>1.0</timeWeight>
        </arrival>
        <arrival publicID="smi:local/3b0870eb-3cf1-45d9-bea8-9ef721b24587">
          <pickID>smi:local/e848f511-925b-4618-ada0-b2c0bd150cb3</pickID>
          <phase>P</phase>
          <azimuth>265.0</azimuth>
          <timeResidual>-0.9</timeResidual>
          <timeWeight>1.0</timeWeight>
        </arrival>
        <arrival publicID="smi:local/9519b2ff-b663-4407-96e0-537d3280728f">
          <pickID>smi:local/155ef0ff-51ae-46e6-9521-2f46a48b309d</pickID>
          <phase>S</phase>
          <azimuth>265.0</azimuth>
          <timeResidual>-0.41</timeResidual>
          <timeWeight>1.0</timeWeight>
        </arrival>
        <arrival publicID="smi:local/8adffdf2-3df7-4e3f-9b46-adf80a5e4e00">
          <pickID>smi:local/4ad9d10f-96f6-4c03-afbc-67c229db0d20</pickID>
          <phase>P</phase>
          <azimuth>164.0</azimuth>
          <timeResidual>-0.5</timeResidual>
          <timeWeight>1.0</timeWeight>
        </arrival>
        <arrival publicID="smi:local/0929c57c-5ea5-40b1-abe4-299c6edd21c1">
          <pickID>smi:local/3c991bc2-c399-45e0-a96b-483ecb3edf88</pickID>
          <phase>S</phase>
          <azimuth>164.0</azimuth>
          <timeResidual>-0.05</timeResidual>
          <timeWeight>1.0</timeWeight>
        </arrival>
        <arrival publicID="smi:local/1a6934a7-df1c-4746-8e7a-61b861d36950">
          <pickID>smi:local/a31c2ed7-399c-4490-aa3c-3dbc836f9064</pickID>
          <phase>P</phase>
          <azimuth>272.0</azimuth>
          <timeResidual>0.73</timeResidual>
          <timeWeight>1.0</timeWeight>
        </arrival>
        <arrival publicID="smi:local/7851cc36-02c8-4de5-b6b2-91efdae0f685">
          <pickID>smi:local/fb7d6bde-1b5b-4e8e-86dc-afbc5cd39992</pickID>
          <phase>S</phase>
          <azimuth>272.0</azimuth>
          <timeResidual>0.23</timeResidual>
          <timeWeight>1.0</timeWeight>
        </arrival>
        <arrival publicID="smi:local/49d622ca-c479-4e9f-bbe3-bedf74fd4d6c">
          <pickID>smi:local/33784e49-561b-48ec-8246-71fb7cc7d64a</pickID>
          <phase>P</phase>
          <azimuth>254.0</azimuth>
          <timeResidual>0.13</timeResidual>
          <timeWeight>1.0</timeWeight>
        </arrival>
        <arrival publicID="smi:local/ce8aaabc-6526-4817-98eb-8c7c0b7017c8">
          <pickID>smi:local/6b24167b-1b51-4660-95bd-a6f2a1ccbc67</pickID>
          <phase>S</phase>
          <azimuth>254.0</azimuth>
          <timeResidual>-0.39</timeResidual>
          <timeWeight>1.0</timeWeight>
        </arrival>
        <arrival publicID="smi:local/8343a4f3-1f2f-4891-81c9-f5a5fc9352d4">
          <pickID>smi:local/e23cf054-ecfc-459c-add6-394c76bf8688</pickID>
          <phase>P</phase>
          <azimuth>272.0</azimuth>
          <timeResidual>0.03</timeResidual>
          <timeWeight>1.0</timeWeight>
        </arrival>
        <arrival publicID="smi:local/3072a6d3-db33-4899-8c8b-398a37383c93">
          <pickID>smi:local/78f23d32-8d5c-4a92-b5d1-755af976ba4a</pickID>
          <phase>P</phase>
          <azimuth>268.0</azimuth>
          <timeResidual>0.01</timeResidual>
          <timeWeight>1.0</timeWeight>
        </arrival>
        <arrival publicID="smi:local/eba08463-9cab-4f1b-9078-6980e829f824">
          <pickID>smi:local/56dc5bd7-940c-4007-99df-d4d6489d506a</pickID>
          <phase>S</phase>
          <azimuth>268.0</azimuth>
          <timeResidual>-0.62</timeResidual>
          <timeWeight>1.0</timeWeight>
        </arrival>
        <arrival publicID="smi:local/d5f9f862-be1e-4a0c-b985-b06e377a5302">
          <pickID>smi:local/19554410-32d0-49d6-b0af-b04848c1c58f</pickID>
          <phase>P</phase>
          <azimuth>167.0</azimuth>
          <timeResidual>-0.78</timeResidual>
          <timeWeight>1.0</timeWeight>
        </arrival>
        <arrival publicID="smi:local/b30abf98-8c70-4665-8bf8-980aedf24144">
          <pickID>smi:local/10bef50a-5f25-41da-b14f-909f02f40905</pickID>
          <phase>P</phase>
          <azimuth>272.0</azimuth>
          <timeResidual>-0.2</timeResidual>
          <timeWeight>1.0</timeWeight>
        </arrival>
        <arrival publicID="smi:local/e2b6c27e-57fe-484b-a7ff-a14620e8b09b">
          <pickID>smi:local/1d8195c7-55a4-485d-b462-923ce9b8b37d</pickID>
          <phase>S</phase>
          <azimuth>272.0</azimuth>
          <timeResidual>-0.9</timeResidual>
          <timeWeight>1.0</timeWeight>
        </arrival>
        <arrival publicID="smi:local/2214be69-db3f-40b7-ba48-ca9dc62fb169">
          <pickID>smi:local/97dbad90-8706-4032-bc1a-215865444e3e</pickID>
          <phase>P</phase>
          <azimuth>256.0</azimuth>
          <timeResidual>-0.26</timeResidual>
          <timeWeight>1.0</timeWeight>
        </arrival>
        <arrival publicID="smi:local/08f77dca-37cc-4aa8-8f6c-be473f4b0514">
          <pickID>smi:local/711fa5e2-6eb2-4b07-ab03-c2eae4927783</pickID>
          <phase>P</phase>
          <azimuth>266.0</azimuth>
          <timeResidual>0.01</timeResidual>
          <timeWeight>1.0</timeWeight>
        </arrival>
        <arrival publicID="smi:local/b742c1a4-8883-42c7-a717-16f573895cd5">
          <pickID>smi:local/566c17bd-b1e7-44eb-be40-917207bcb6b7</pickID>
          <phase>P</phase>
          <azimuth>277.0</azimuth>
          <timeResidual>-0.4</timeResidual>
          <timeWeight>1.0</timeWeight>
        </arrival>
        <arrival publicID="smi:local/f997b0c1-7a0a-43e1-a229-5d5f1efae7bf">
          <pickID>smi:local/a3be19b4-51f8-435b-99dd-8c009ffa015f</pickID>
          <phase>P</phase>
          <azimuth>264.0</azimuth>
          <timeResidual>1.7</timeResidual>
          <timeWeight>1.0</timeWeight>
        </arrival>
        <arrival publicID="smi:local/31f9b520-590e-4f49-be61-6e68a1541e40">
          <pickID>smi:local/889b2067-86eb-4e9b-aae8-b5642fcf59a4</pickID>
          <phase>P</phase>
          <azimuth>227.0</azimuth>
          <timeResidual>0.23</timeResidual>
          <timeWeight>1.0</timeWeight>
        </arrival>
        <arrival publicID="smi:local/2e8dea91-0eaa-42af-b9f0-2648c6703687">
          <pickID>smi:local/f620e6ac-9bf2-4ec9-a099-1db2b815e861</pickID>
          <phase>P</phase>
          <azimuth>245.0</azimuth>
          <timeResidual>1.04</timeResidual>
          <timeWeight>1.0</timeWeight>
        </arrival>
        <arrival publicID="smi:local/d2fa5b87-a8ec-47ac-92ae-2bbf4a8fe8ee">
          <pickID>smi:local/c514a874-725f-4b0d-ab53-aa49b34f5432</pickID>
          <phase>P</phase>
          <azimuth>265.0</azimuth>
          <timeResidual>1.67</timeResidual>
          <timeWeight>1.0</timeWeight>
        </arrival>
        <arrival publicID="smi:local/a96527b7-a2d4-47e7-99a3-ffbce1f6cff9">
          <pickID>smi:local/2dc596a1-2f59-459d-9c34-1b302cbbeb9d</pickID>
          <phase>P</phase>
          <azimuth>260.0</azimuth>
          <timeResidual>0.66</timeResidual>
          <timeWeight>1.0</timeWeight>
        </arrival>
        <arrival publicID="smi:local/45358699-c323-4d37-82b9-c4c2ae90015a">
          <pickID>smi:local/9ea1d044-2a90-490f-b6e7-dbcd4ab4f726</pickID>
          <phase>P</phase>
          <azimuth>248.0</azimuth>
          <timeResidual>1.08</timeResidual>
          <timeWeight>1.0</timeWeight>
        </arrival>
        <arrival publicID="smi:local/41d7cb37-7469-436b-9b89-dcae7a1aab82">
          <pickID>smi:local/6c1927e0-5fac-4116-937c-f7eac4a37fb0</pickID>
          <phase>P</phase>
          <azimuth>260.0</azimuth>
          <timeResidual>-0.16</timeResidual>
          <timeWeight>1.0</timeWeight>
        </arrival>
      </origin>
      <magnitude publicID="smi:local/b9aecbd7-97a3-462d-abad-12418568e0f6">
        <mag>
          <value>4.0</value>
        </mag>
        <type>MW</type>
        <creationInfo>
          <agencyID>FUN</agencyID>
        </creationInfo>
      </magnitude>
      <pick publicID="smi:local/e2dd0cff-a780-4a2c-87fb-69c6f2c9ca4d">
        <time>
          <value>2015-01-10T05:17:43.700000Z</value>
        </time>
        <waveformID channelCode="BHZ" locationCode=" " networkCode="UK" stationCode="CRUV"></waveformID>
        <onset>emergent</onset>
        <phaseHint>P</phaseHint>
        <polarity>negative</polarity>
        <evaluationMode>automatic</evaluationMode>
      </pick>
      <pick publicID="smi:local/deb51779-bebd-4297-af87-3020dc1ce656">
        <time>
          <value>2015-01-10T05:17:54.760000Z</value>
        </time>
        <waveformID channelCode="BHN" locationCode=" " networkCode="UK" stationCode="CRUV"></waveformID>
        <onset>emergent</onset>
        <phaseHint>S</phaseHint>
        <polarity>undecidable</polarity>
        <evaluationMode>automatic</evaluationMode>
      </pick>
      <pick publicID="smi:local/9f0cce3d-0161-454e-bbd3-d9d03be4cce8">
        <time>
          <value>2015-01-10T05:17:50.300000Z</value>
        </time>
        <waveformID channelCode="BHZ" locationCode=" " networkCode="UK" stationCode="TRN"></waveformID>
        <onset>emergent</onset>
        <phaseHint>P</phaseHint>
        <polarity>negative</polarity>
        <evaluationMode>automatic</evaluationMode>
      </pick>
      <pick publicID="smi:local/165ee7d8-8c3c-4cc9-bd76-c9630efa8964">
        <time>
          <value>2015-01-10T05:18:04.990000Z</value>
        </time>
        <waveformID channelCode="BHN" locationCode=" " networkCode="UK" stationCode="TRN"></waveformID>
        <onset>emergent</onset>
        <phaseHint>S</phaseHint>
        <polarity>undecidable</polarity>
        <evaluationMode>automatic</evaluationMode>
      </pick>
      <pick publicID="smi:local/3a410b70-061d-40be-932d-d7ccade8d63f">
        <time>
          <value>2015-01-10T05:17:56.920000Z</value>
        </time>
        <waveformID channelCode="BHZ" locationCode=" " networkCode="UK" stationCode="ORIV"></waveformID>
        <onset>emergent</onset>
        <phaseHint>P</phaseHint>
        <polarity>undecidable</polarity>
        <evaluationMode>automatic</evaluationMode>
      </pick>
      <pick publicID="smi:local/e336ac9c-391c-4947-a0e9-dc6f7ae180bd">
        <time>
          <value>2015-01-10T05:18:16.680000Z</value>
        </time>
        <waveformID channelCode="BHN" locationCode=" " networkCode="UK" stationCode="ORIV"></waveformID>
        <onset>emergent</onset>
        <phaseHint>S</phaseHint>
        <polarity>undecidable</polarity>
        <evaluationMode>automatic</evaluationMode>
      </pick>
      <pick publicID="smi:local/1e0bfeed-1cd4-45ff-b8bd-9dcf86b275ba">
        <time>
          <value>2015-01-10T05:17:58.730000Z</value>
        </time>
        <waveformID channelCode="BHZ" locationCode=" " networkCode="UK" stationCode="MAN"></waveformID>
        <onset>emergent</onset>
        <phaseHint>P</phaseHint>
        <polarity>undecidable</polarity>
        <evaluationMode>automatic</evaluationMode>
      </pick>
      <pick publicID="smi:local/5ca0925d-2e55-49dc-8c9f-d7ba9ebad56d">
        <time>
          <value>2015-01-10T05:17:58.100000Z</value>
        </time>
