<?xml version='1.0' encoding='utf-8'?>
<q:quakeml xmlns:my_ns="http://test.org/xmlns/0.1" xmlns:q="http://quakeml.org/xmlns/quakeml/1.2" xmlns="http://quakeml.org/xmlns/bed/1.2">
  <eventParameters publicID="smi:local/4fca099c-cb30-4a7f-b288-95c2cd6d64c9">
    <event publicID="smi:local/2015-01-10T05-17-00">
      <preferredOriginID>smi:local/604fa311-6916-4d28-80d1-d0142621fc98</preferredOriginID>
      <preferredMagnitudeID>smi:local/5b84a91e-b7ee-4825-94f8-2d2e9b04a02b</preferredMagnitudeID>
      <description>
        <text>L</text>
      </description>
      <comment id="smi:local/275e492c-8804-4500-b87d-89d62413dd53">
        <text>SPEC AVERAGE  MO 15.0 ST 21.3 OM  3.4 f0 2.17 R0.6500 AL 3.33 WI 31.4 MW  4.0</text>
      </comment>
      <comment id="smi:local/58a07d7c-d065-4859-a53e-0d90e112596f">
        <text>SPEC SD       MO  0.2 ST 10.1 OM  0.4 f00.510 R0.1566 AL      WI      MW  0.1</text>
      </comment>
      <comment id="smi:local/dcb6e8e4-9c98-4565-9314-5fe766d7e517">
        <text>SPEC TURVHH N MO 14.9 ST 19.0 OM  3.0 f0 2.28 R0.5842 AL 3.42 WI 35.7 MW  3.9</text>
      </comment>
      <comment id="smi:local/7f76e1eb-2c76-4d7c-aa8e-be5f11e2afea">
        <text>SPEC TURVHH N T 51941 K 0.000 GD  588 VS 3.60 DE 3.00 Q0440.0 QA 0.70 Q1 0.00</text>
      </comment>
      <comment id="smi:local/ec989e70-41fc-452b-841d-27c748c49515">
        <text>SPEC TACVHH N MO 15.0 ST 11.4 OM  3.1 f0 1.88 R0.7085 AL 2.26 WI 36.1 MW  3.9</text>
      </comment>
      <comment id="smi:local/a2076ac0-11dd-43f0-b687-7baefd56a12f">
        <text>SPEC TACVHH N T 51921 K 0.000 GD  500 VS 3.60 DE 3.00 Q0440.0 QA 0.70 Q1 0.00</text>
      </comment>
      <comment id="smi:local/d2a310fe-626c-4c4d-94e4-55fa4a583a0a">
        <text>SPEC RIOVHH N MO 14.7 ST 27.8 OM  3.1 f0 3.13 R0.4256 AL 3.07 WI 22.9 MW  3.7</text>
      </comment>
      <comment id="smi:local/c746ef74-bdd0-490f-87f3-25e033281185">
        <text>SPEC RIOVHH N T 51834 K 0.000 GD  263 VS 3.60 DE 3.00 Q0440.0 QA 0.70 Q1 0.00</text>
      </comment>
      <comment id="smi:local/b7883615-1799-46d6-813a-a964070ea7f3">
        <text>SPEC PCRVHH N MO 15.2 ST  8.6 OM  3.7 f0 1.39 R0.9583 AL 4.09 WI 37.4 MW  4.1</text>
      </comment>
      <comment id="smi:local/2d3fd1d5-389b-460e-88d2-ec9096727175">
        <text>SPEC PCRVHH N T 51823 K 0.000 GD  233 VS 3.60 DE 3.00 Q0440.0 QA 0.70 Q1 0.00</text>
      </comment>
      <comment id="smi:local/6cdf4028-fe9e-4d92-9dc3-c332537c129e">
        <text>SPEC ORIVHH N MO 15.3 ST 39.0 OM  3.9 f0 2.17 R0.6138 AL 3.08 WI 36.5 MW  4.2</text>
      </comment>
      <comment id="smi:local/585c6dcf-fad0-4a67-b4bb-30cdc3cd8061">
        <text>SPEC ORIVHH N T 51815 K 0.000 GD  176 VS 3.60 DE 3.00 Q0440.0 QA 0.70 Q1 0.00</text>
      </comment>
      <comment id="smi:local/17b43fb2-67ab-4cde-96da-7776c5eec33f">
        <text>SPEC MERVHH N MO 15.0 ST 28.5 OM  3.2 f0 2.47 R0.5393 AL 3.65 WI 24.7 MW  3.9</text>
      </comment>
      <comment id="smi:local/c7fa8857-9c51-41b1-b1e4-23bae6c8725d">
        <text>SPEC MERVHH N T 51912 K 0.000 GD  437 VS 3.60 DE 3.00 Q0440.0 QA 0.70 Q1 0.00</text>
      </comment>
      <comment id="smi:local/1a4fb538-ff83-4288-b706-ae3e532e4065">
        <text>SPEC CRUVHH N MO 15.1 ST 14.8 OM  4.0 f0 1.85 R0.7200 AL 3.72 WI 26.4 MW  4.0</text>
      </comment>
      <comment id="smi:local/9f7d403c-a96b-4190-a7ed-6f3533547403">
        <text>SPEC CRUVHH N T 51752 K 0.000 GD 85.4 VS 3.60 DE 3.00 Q0440.0 QA 0.70 Q1 0.00</text>
      </comment>
      <comment id="smi:local/90154672-3e72-4e91-aef1-d0f41d98ca4b">
        <text>OLDACT:UP  15-06-26 14:18 OP:leo  STATUS:               ID:20150110051700</text>
      </comment>
      <comment id="smi:local/7374aa5f-ddd7-4b7f-b8bc-3cf9b35b8a08">
        <text>OLDACT:UP  15-01-10 01:15 OP:mu   STATUS:               ID:20150110051700</text>
      </comment>
      <comment id="smi:local/c25b4a85-a6ab-4fc8-8160-2a8ed3e6c460">
        <text>OLDACT:UP  15-01-10 01:11 OP:mu   STATUS:               ID:20150110051700</text>
      </comment>
      <comment id="smi:local/0fee13bc-a2ab-4927-ab5c-e88c68bf06a6">
        <text>OLDACT:UP  15-01-10 01:10 OP:mu   STATUS:               ID:20150110051700</text>
      </comment>
      <comment id="smi:local/91d0375c-f4ab-458e-a17f-b3543729ad6b">
        <text>OLDACT:UP  15-01-10 01:08 OP:mu   STATUS:               ID:20150110051700</text>
      </comment>
      <comment id="smi:local/0dc7340e-655d-43b7-a2a3-7bb0355ab8ac">
        <text>OLDACT:UP  15-01-10 01:06 OP:mu   STATUS:               ID:20150110051700</text>
      </comment>
      <comment id="smi:local/231e73bf-fea5-4676-8517-78826db3eba9">
        <text>OLDACT:UP  15-01-10 01:05 OP:mu   STATUS:               ID:20150110051700</text>
      </comment>
      <comment id="smi:local/ee0ded95-979c-41e1-83bc-638dc5cd78da">
        <text>OLDACT:UP  15-01-10 01:03 OP:mu   STATUS:               ID:20150110051700</text>
      </comment>
      <comment id="smi:local/5cd55df1-9e11-420c-8ec0-5998ff2de79d">
        <text>OLDACT:REG 15-01-10 01:02 OP:mu   STATUS:               ID:20150110051700</text>
      </comment>
      <origin publicID="smi:local/604fa311-6916-4d28-80d1-d0142621fc98">
        <time>
          <value>2015-01-10T05:17:30.400000Z</value>
        </time>
        <latitude>
          <value>10.352</value>
        </latitude>
        <longitude>
          <value>-62.472</value>
        </longitude>
        <depth>
          <value>19.3</value>
        </depth>
        <quality>
          <associatedPhaseCount>24</associatedPhaseCount>
          <standardError>0.6</standardError>
          <azimuthalGap>94.0</azimuthalGap>
        </quality>
        <creationInfo>
          <agencyID>FUN</agencyID>
          <author>leo</author>
          <creationTime>2015-01-10T05:17:00.000000Z</creationTime>
        </creationInfo>
        <arrival publicID="smi:local/867522da-2f17-4f9c-89e4-fcde894cfd6a">
          <pickID>smi:local/dbc8ce6a-3184-4146-b68d-d9060076e371</pickID>
          <phase>P</phase>
          <azimuth>291.0</azimuth>
          <timeResidual>-0.8</timeResidual>
          <timeWeight>1.0</timeWeight>
        </arrival>
        <arrival publicID="smi:local/1302ed58-ae4f-4d93-af5c-76ba97370c97">
          <pickID>smi:local/d5cb2af7-446a-4ec3-a69f-e88cc9d259a4</pickID>
          <phase>S</phase>
          <azimuth>291.0</azimuth>
          <timeResidual>-0.16</timeResidual>
          <timeWeight>1.0</timeWeight>
        </arrival>
        <arrival publicID="smi:local/55040a29-4a7f-48a2-ad90-4302caacfbdd">
          <pickID>smi:local/ef3d05b1-4598-4254-b8cf-9afd76bd17d7</pickID>
          <phase>P</phase>
          <azimuth>74.0</azimuth>
          <timeResidual>-0.18</timeResidual>
          <timeWeight>1.0</timeWeight>
        </arrival>
        <arrival publicID="smi:local/1ad7e5f1-abb6-4c6b-b183-570bbf716cf3">
          <pickID>smi:local/15e3f7aa-9ba4-4d38-b608-a85c377f7435</pickID>
          <phase>S</phase>
          <azimuth>74.0</azimuth>
          <timeResidual>-0.32</timeResidual>
          <timeWeight>1.0</timeWeight>
        </arrival>
        <arrival publicID="smi:local/e6ce4b52-6aff-42e2-8319-7ba5c92d01c3">
          <pickID>smi:local/a1f4d44c-0263-4ebc-b474-dbc1e35f7a1a</pickID>
          <phase>P</phase>
          <azimuth>216.0</azimuth>
          <timeResidual>-0.08</timeResidual>
          <timeWeight>1.0</timeWeight>
        </arrival>
        <arrival publicID="smi:local/c2de4daf-e0c2-4cf1-94a1-65e68be03d62">
          <pickID>smi:local/5ef93edf-86c1-4081-b3bf-1de5b68bd8b4</pickID>
          <phase>S</phase>
          <azimuth>216.0</azimuth>
          <timeResidual>0.01</timeResidual>
          <timeWeight>1.0</timeWeight>
        </arrival>
        <arrival publicID="smi:local/46697eba-083d-48e9-8426-a4ea6d197108">
          <pickID>smi:local/04ed8a11-8636-477a-a54b-3d847e4cea3b</pickID>
          <phase>P</phase>
          <azimuth>277.0</azimuth>
          <timeResidual>0.03</timeResidual>
          <timeWeight>1.0</timeWeight>
        </arrival>
        <arrival publicID="smi:local/caba1f8e-a367-4f8e-8549-194febfea6e3">
          <pickID>smi:local/3d166ba0-3513-4063-9b98-05aa7cd3fa96</pickID>
          <phase>P</phase>
          <azimuth>273.0</azimuth>
          <timeResidual>-0.52</timeResidual>
          <timeWeight>1.0</timeWeight>
        </arrival>
        <arrival publicID="smi:local/dea09451-4520-4dba-b446-153e7f3eae24">
          <pickID>smi:local/cd4b948e-7cbd-44df-9bb1-d1522316e94c</pickID>
          <phase>S</phase>
          <azimuth>273.0</azimuth>
          <timeResidual>-0.37</timeResidual>
          <timeWeight>1.0</timeWeight>
        </arrival>
        <arrival publicID="smi:local/77407656-fa6a-423e-953e-db4f3ea23fc0">
          <pickID>smi:local/b266e358-8739-4c88-8359-a749eda1cfb4</pickID>
          <phase>P</phase>
          <azimuth>24.0</azimuth>
          <timeResidual>0.53</timeResidual>
          <timeWeight>1.0</timeWeight>
        </arrival>
        <arrival publicID="smi:local/ecf839d9-0205-4e69-9718-c67bda4f1cf0">
          <pickID>smi:local/6fcc7623-c034-451a-a77e-66de76760f12</pickID>
          <phase>P</phase>
          <azimuth>265.0</azimuth>
          <timeResidual>-0.9</timeResidual>
          <timeWeight>1.0</timeWeight>
        </arrival>
        <arrival publicID="smi:local/500a77db-abff-4b37-b518-a86bbd2527de">
          <pickID>smi:local/2029874f-a9c3-42e7-bb59-f464f0573f2d</pickID>
          <phase>S</phase>
          <azimuth>265.0</azimuth>
          <timeResidual>-0.41</timeResidual>
          <timeWeight>1.0</timeWeight>
        </arrival>
        <arrival publicID="smi:local/1f7f7b64-3624-4148-8551-2a86bafce9fb">
          <pickID>smi:local/7548af01-07c3-454c-97df-c2fff62e9196</pickID>
          <phase>P</phase>
          <azimuth>164.0</azimuth>
          <timeResidual>-0.5</timeResidual>
          <timeWeight>1.0</timeWeight>
        </arrival>
        <arrival publicID="smi:local/e04f90b1-05bb-41ae-9fa7-d23b0fd08066">
          <pickID>smi:local/5c40fa06-2de6-466b-bf2a-a971aea1b269</pickID>
          <phase>S</phase>
          <azimuth>164.0</azimuth>
          <timeResidual>-0.05</timeResidual>
          <timeWeight>1.0</timeWeight>
        </arrival>
        <arrival publicID="smi:local/20683756-1a1a-45c6-b178-14464c6036d5">
          <pickID>smi:local/4b33a6be-f943-4ce8-9ed2-512a7ccb7e46</pickID>
          <phase>P</phase>
          <azimuth>272.0</azimuth>
          <timeResidual>0.73</timeResidual>
          <timeWeight>1.0</timeWeight>
        </arrival>
        <arrival publicID="smi:local/7824505e-e7c8-4927-9cc7-58fac5757a99">
          <pickID>smi:local/c1607dea-ecae-46f2-97c8-88c21a900098</pickID>
          <phase>S</phase>
          <azimuth>272.0</azimuth>
          <timeResidual>0.23</timeResidual>
          <timeWeight>1.0</timeWeight>
        </arrival>
        <arrival publicID="smi:local/fbccfd0a-5e89-446b-a30d-d83c74c27846">
          <pickID>smi:local/17e74d73-b62c-4434-8312-3890bae966f6</pickID>
          <phase>P</phase>
          <azimuth>254.0</azimuth>
          <timeResidual>0.13</timeResidual>
          <timeWeight>1.0</timeWeight>
        </arrival>
        <arrival publicID="smi:local/007bbe0f-efdc-4ae2-8319-b019ad17b977">
          <pickID>smi:local/70d25f75-2410-49c1-ada6-3f014af6d139</pickID>
          <phase>S</phase>
          <azimuth>254.0</azimuth>
          <timeResidual>-0.39</timeResidual>
          <timeWeight>1.0</timeWeight>
        </arrival>
        <arrival publicID="smi:local/9705b839-9c53-4bb9-9535-aba7787950af">
          <pickID>smi:local/d7ff7747-95de-4f22-90fd-8346e363a4fd</pickID>
          <phase>P</phase>
          <azimuth>272.0</azimuth>
          <timeResidual>0.03</timeResidual>
          <timeWeight>1.0</timeWeight>
        </arrival>
        <arrival publicID="smi:local/a82c3d6a-9fed-439a-a4fb-cd6717cc4c6f">
          <pickID>smi:local/269f1d6d-3eb3-4fa5-a86b-1350324fd519</pickID>
          <phase>P</phase>
          <azimuth>268.0</azimuth>
          <timeResidual>0.01</timeResidual>
          <timeWeight>1.0</timeWeight>
        </arrival>
        <arrival publicID="smi:local/657aede6-c68e-4280-a09e-ba598652fee0">
          <pickID>smi:local/588528d8-e76d-46eb-8f6d-120f77ae6ec7</pickID>
          <phase>S</phase>
          <azimuth>268.0</azimuth>
          <timeResidual>-0.62</timeResidual>
          <timeWeight>1.0</timeWeight>
        </arrival>
        <arrival publicID="smi:local/c2746175-10f3-46f2-9bb3-02a444ae6538">
          <pickID>smi:local/617a7993-417a-4484-9c8c-5444a713fe81</pickID>
          <phase>P</phase>
          <azimuth>167.0</azimuth>
          <timeResidual>-0.78</timeResidual>
          <timeWeight>1.0</timeWeight>
        </arrival>
        <arrival publicID="smi:local/7df7d26b-df0a-4cef-a896-3d212eb0ffbc">
          <pickID>smi:local/1fefbbb3-7388-40d3-8ec1-380e9dad28c9</pickID>
          <phase>P</phase>
          <azimuth>272.0</azimuth>
          <timeResidual>-0.2</timeResidual>
          <timeWeight>1.0</timeWeight>
        </arrival>
        <arrival publicID="smi:local/af89596d-ed8c-4f4c-98c8-34a80a80899e">
          <pickID>smi:local/5f3ba862-db47-44e4-be1c-3c7db0ecf1b9</pickID>
          <phase>S</phase>
          <azimuth>272.0</azimuth>
          <timeResidual>-0.9</timeResidual>
          <timeWeight>1.0</timeWeight>
        </arrival>
        <arrival publicID="smi:local/2565b20f-e580-419a-ae5c-5a8a4f9535c3">
          <pickID>smi:local/2995a474-a13c-4c21-b000-0fbeb3d3482c</pickID>
          <phase>P</phase>
          <azimuth>256.0</azimuth>
          <timeResidual>-0.26</timeResidual>
          <timeWeight>1.0</timeWeight>
        </arrival>
        <arrival publicID="smi:local/3a4cb995-83ff-477a-9a53-e1288d49becd">
          <pickID>smi:local/82ea678e-b97d-467e-8a7e-2d397189040d</pickID>
          <phase>P</phase>
          <azimuth>266.0</azimuth>
          <timeResidual>0.01</timeResidual>
          <timeWeight>1.0</timeWeight>
        </arrival>
        <arrival publicID="smi:local/74a64889-5837-4fe2-8f2f-f10183823ddc">
          <pickID>smi:local/3e854f8a-598a-4a66-b5b4-d9ebd5ea1c45</pickID>
          <phase>P</phase>
          <azimuth>277.0</azimuth>
          <timeResidual>-0.4</timeResidual>
          <timeWeight>1.0</timeWeight>
        </arrival>
        <arrival publicID="smi:local/5f00fbe8-005c-4c38-94ff-1abfe1ad6659">
          <pickID>smi:local/c4067624-5853-4d5b-925a-fa35537f9e7a</pickID>
          <phase>P</phase>
          <azimuth>264.0</azimuth>
          <timeResidual>1.7</timeResidual>
          <timeWeight>1.0</timeWeight>
        </arrival>
        <arrival publicID="smi:local/be24632d-62de-4db3-b221-c7d148946699">
          <pickID>smi:local/1f8642d9-e8b9-4c42-b9a5-3261ed12e6e2</pickID>
          <phase>P</phase>
          <azimuth>227.0</azimuth>
          <timeResidual>0.23</timeResidual>
          <timeWeight>1.0</timeWeight>
        </arrival>
        <arrival publicID="smi:local/3502bb4b-0341-446a-9d2f-3290ec04fb1d">
          <pickID>smi:local/9f51d3c1-340d-45b3-bf46-da9952a97800</pickID>
          <phase>P</phase>
          <azimuth>245.0</azimuth>
          <timeResidual>1.04</timeResidual>
          <timeWeight>1.0</timeWeight>
        </arrival>
        <arrival publicID="smi:local/2374d218-cf7b-4e24-ae49-89e7ed83aa0a">
          <pickID>smi:local/7b29bf82-46fb-49b3-891c-964ee47721d9</pickID>
          <phase>P</phase>
          <azimuth>265.0</azimuth>
          <timeResidual>1.67</timeResidual>
          <timeWeight>1.0</timeWeight>
        </arrival>
        <arrival publicID="smi:local/8bb0c11b-cff2-403e-b4c5-8caad9acdce6">
          <pickID>smi:local/21cd2e1e-64c0-4e7c-8677-4c34f4902eec</pickID>
          <phase>P</phase>
          <azimuth>260.0</azimuth>
          <timeResidual>0.66</timeResidual>
          <timeWeight>1.0</timeWeight>
        </arrival>
        <arrival publicID="smi:local/0e5ccf49-afa7-4d9c-8e52-7f09cd4c87c0">
          <pickID>smi:local/d791bad9-396c-4d88-87e6-7ccb637d1225</pickID>
          <phase>P</phase>
          <azimuth>248.0</azimuth>
          <timeResidual>1.08</timeResidual>
          <timeWeight>1.0</timeWeight>
        </arrival>
        <arrival publicID="smi:local/878e474b-005e-4b84-8435-3fb1ee306b84">
          <pickID>smi:local/50338c1e-5e15-4002-af24-bf9e6cb9daf2</pickID>
          <phase>P</phase>
          <azimuth>260.0</azimuth>
          <timeResidual>-0.16</timeResidual>
          <timeWeight>1.0</timeWeight>
        </arrival>
      </origin>
      <magnitude publicID="smi:local/5b84a91e-b7ee-4825-94f8-2d2e9b04a02b">
        <mag>
          <value>4.0</value>
        </mag>
        <type>MW</type>
        <creationInfo>
          <agencyID>FUN</agencyID>
        </creationInfo>
      </magnitude>
      <pick publicID="smi:local/dbc8ce6a-3184-4146-b68d-d9060076e371">
        <time>
          <value>2015-01-10T05:17:43.700000Z</value>
        </time>
        <waveformID channelCode="BHZ" locationCode=" " networkCode="UK" stationCode="CRUV"></waveformID>
        <onset>emergent</onset>
        <phaseHint>P</phaseHint>
        <polarity>negative</polarity>
        <evaluationMode>automatic</evaluationMode>
      </pick>
      <pick publicID="smi:local/d5cb2af7-446a-4ec3-a69f-e88cc9d259a4">
        <time>
          <value>2015-01-10T05:17:54.760000Z</value>
        </time>
        <waveformID channelCode="BHN" locationCode=" " networkCode="UK" stationCode="CRUV"></waveformID>
        <onset>emergent</onset>
        <phaseHint>S</phaseHint>
        <polarity>undecidable</polarity>
        <evaluationMode>automatic</evaluationMode>
      </pick>
      <pick publicID="smi:local/ef3d05b1-4598-4254-b8cf-9afd76bd17d7">
        <time>
          <value>2015-01-10T05:17:50.300000Z</value>
        </time>
        <waveformID channelCode="BHZ" locationCode=" " networkCode="UK" stationCode="TRN"></waveformID>
        <onset>emergent</onset>
        <phaseHint>P</phaseHint>
        <polarity>negative</polarity>
        <evaluationMode>automatic</evaluationMode>
      </pick>
      <pick publicID="smi:local/15e3f7aa-9ba4-4d38-b608-a85c377f7435">
        <time>
          <value>2015-01-10T05:18:04.990000Z</value>
        </time>
        <waveformID channelCode="BHN" locationCode=" " networkCode="UK" stationCode="TRN"></waveformID>
        <onset>emergent</onset>
        <phaseHint>S</phaseHint>
        <polarity>undecidable</polarity>
        <evaluationMode>automatic</evaluationMode>
      </pick>
      <pick publicID="smi:local/a1f4d44c-0263-4ebc-b474-dbc1e35f7a1a">
        <time>
          <value>2015-01-10T05:17:56.920000Z</value>
        </time>
        <waveformID channelCode="BHZ" locationCode=" " networkCode="UK" stationCode="ORIV"></waveformID>
        <onset>emergent</onset>
        <phaseHint>P</phaseHint>
        <polarity>undecidable</polarity>
        <evaluationMode>automatic</evaluationMode>
      </pick>
      <pick publicID="smi:local/5ef93edf-86c1-4081-b3bf-1de5b68bd8b4">
        <time>
          <value>2015-01-10T05:18:16.680000Z</value>
        </time>
        <waveformID channelCode="BHN" locationCode=" " networkCode="UK" stationCode="ORIV"></waveformID>
        <onset>emergent</onset>
        <phaseHint>S</phaseHint>
        <polarity>undecidable</polarity>
        <evaluationMode>automatic</evaluationMode>
      </pick>
      <pick publicID="smi:local/04ed8a11-8636-477a-a54b-3d847e4cea3b">
        <time>
          <value>2015-01-10T05:17:58.730000Z</value>
        </time>
        <waveformID channelCode="BHZ" locationCode=" " networkCode="UK" stationCode="MAN"></waveformID>
        <onset>emergent</onset>
        <phaseHint>P</phaseHint>
        <polarity>undecidable</polarity>
        <evaluationMode>automatic</evaluationMode>
      </pick>
      <pick publicID="smi:local/3d166ba0-3513-4063-9b98-05aa7cd3fa96">
        <time>
          <value>2015-01-10T05:17:58.100000Z</value>
        </time>
