<?xml version='1.0' encoding='utf-8'?>
<q:quakeml xmlns:my_ns="http://test.org/xmlns/0.1" xmlns:q="http://quakeml.org/xmlns/quakeml/1.2" xmlns="http://quakeml.org/xmlns/bed/1.2">
  <eventParameters publicID="smi:local/7d570005-22ff-4887-b298-a2c5189e52d6">
    <event publicID="smi:local/2015-01-10T05-17-00">
      <preferredOriginID>smi:local/3afe630a-d62e-4539-94c1-53a53d01fbe4</preferredOriginID>
      <preferredMagnitudeID>smi:local/167fcb8e-082f-44a1-9b2f-be059830ba60</preferredMagnitudeID>
      <description>
        <text>L</text>
      </description>
      <comment id="smi:local/f44c29ef-9fb1-4b0f-a430-9c923acfd2b5">
        <text>SPEC AVERAGE  MO 15.0 ST 21.3 OM  3.4 f0 2.17 R0.6500 AL 3.33 WI 31.4 MW  4.0</text>
      </comment>
      <comment id="smi:local/0e363410-1207-477f-b82c-f13bded0dd5b">
        <text>SPEC SD       MO  0.2 ST 10.1 OM  0.4 f00.510 R0.1566 AL      WI      MW  0.1</text>
      </comment>
      <comment id="smi:local/e4593292-2bfb-4895-9e6e-863eae35cf2f">
        <text>SPEC TURVHH N MO 14.9 ST 19.0 OM  3.0 f0 2.28 R0.5842 AL 3.42 WI 35.7 MW  3.9</text>
      </comment>
      <comment id="smi:local/2fe31cd9-cb22-42df-a180-71e6c9ecbc46">
        <text>SPEC TURVHH N T 51941 K 0.000 GD  588 VS 3.60 DE 3.00 Q0440.0 QA 0.70 Q1 0.00</text>
      </comment>
      <comment id="smi:local/537d39e2-8811-4211-8ea3-fa8e4857b5c5">
        <text>SPEC TACVHH N MO 15.0 ST 11.4 OM  3.1 f0 1.88 R0.7085 AL 2.26 WI 36.1 MW  3.9</text>
      </comment>
      <comment id="smi:local/457f3e69-021d-4de7-b02c-f6d842c1f85b">
        <text>SPEC TACVHH N T 51921 K 0.000 GD  500 VS 3.60 DE 3.00 Q0440.0 QA 0.70 Q1 0.00</text>
      </comment>
      <comment id="smi:local/4ad68431-09d3-4f70-bce4-550b8052df85">
        <text>SPEC RIOVHH N MO 14.7 ST 27.8 OM  3.1 f0 3.13 R0.4256 AL 3.07 WI 22.9 MW  3.7</text>
      </comment>
      <comment id="smi:local/0149eef8-12b4-40cc-b07e-b808cce9ddbb">
        <text>SPEC RIOVHH N T 51834 K 0.000 GD  263 VS 3.60 DE 3.00 Q0440.0 QA 0.70 Q1 0.00</text>
      </comment>
      <comment id="smi:local/789531fa-ca3f-4504-95c4-1bb8330c65f1">
        <text>SPEC PCRVHH N MO 15.2 ST  8.6 OM  3.7 f0 1.39 R0.9583 AL 4.09 WI 37.4 MW  4.1</text>
      </comment>
      <comment id="smi:local/52872ead-2255-470e-a99e-959e5b10cecb">
        <text>SPEC PCRVHH N T 51823 K 0.000 GD  233 VS 3.60 DE 3.00 Q0440.0 QA 0.70 Q1 0.00</text>
      </comment>
      <comment id="smi:local/0aa6d821-fd2e-400d-9ebb-fed55493b885">
        <text>SPEC ORIVHH N MO 15.3 ST 39.0 OM  3.9 f0 2.17 R0.6138 AL 3.08 WI 36.5 MW  4.2</text>
      </comment>
      <comment id="smi:local/3d63b472-8152-4dc3-8ef4-6e9d092eec85">
        <text>SPEC ORIVHH N T 51815 K 0.000 GD  176 VS 3.60 DE 3.00 Q0440.0 QA 0.70 Q1 0.00</text>
      </comment>
      <comment id="smi:local/d97e11d2-770a-4a93-8fd5-654164ee1c29">
        <text>SPEC MERVHH N MO 15.0 ST 28.5 OM  3.2 f0 2.47 R0.5393 AL 3.65 WI 24.7 MW  3.9</text>
      </comment>
      <comment id="smi:local/b732647a-ad3d-4616-b2be-b45c28fe275c">
        <text>SPEC MERVHH N T 51912 K 0.000 GD  437 VS 3.60 DE 3.00 Q0440.0 QA 0.70 Q1 0.00</text>
      </comment>
      <comment id="smi:local/6554944a-6e2f-4b11-b66e-03a25f665395">
        <text>SPEC CRUVHH N MO 15.1 ST 14.8 OM  4.0 f0 1.85 R0.7200 AL 3.72 WI 26.4 MW  4.0</text>
      </comment>
      <comment id="smi:local/7bf808f7-ee4b-478d-ba11-1027038c25d3">
        <text>SPEC CRUVHH N T 51752 K 0.000 GD 85.4 VS 3.60 DE 3.00 Q0440.0 QA 0.70 Q1 0.00</text>
      </comment>
      <comment id="smi:local/defec5be-f32a-4149-8a34-fbc25014ef73">
        <text>OLDACT:UP  15-06-26 14:18 OP:leo  STATUS:               ID:20150110051700</text>
      </comment>
      <comment id="smi:local/6c727645-20fb-46a4-979e-2027f9e2af4b">
        <text>OLDACT:UP  15-01-10 01:15 OP:mu   STATUS:               ID:20150110051700</text>
      </comment>
      <comment id="smi:local/3cb92c4d-9aa8-4357-81fb-6c3b86612732">
        <text>OLDACT:UP  15-01-10 01:11 OP:mu   STATUS:               ID:20150110051700</text>
      </comment>
      <comment id="smi:local/053f32c8-0809-4b9e-9b20-a0fb4f73f8c2">
        <text>OLDACT:UP  15-01-10 01:10 OP:mu   STATUS:               ID:20150110051700</text>
      </comment>
      <comment id="smi:local/e5c81f11-06ed-4776-945f-b97ff6710037">
        <text>OLDACT:UP  15-01-10 01:08 OP:mu   STATUS:               ID:20150110051700</text>
      </comment>
      <comment id="smi:local/bc160e3a-26b3-4474-80b3-fd0593d3cdf7">
        <text>OLDACT:UP  15-01-10 01:06 OP:mu   STATUS:               ID:20150110051700</text>
      </comment>
      <comment id="smi:local/8d222168-aa96-4012-9ba1-04fb99fb1dac">
        <text>OLDACT:UP  15-01-10 01:05 OP:mu   STATUS:               ID:20150110051700</text>
      </comment>
      <comment id="smi:local/4777bf0f-e8dc-46ea-befa-e5e303f6da98">
        <text>OLDACT:UP  15-01-10 01:03 OP:mu   STATUS:               ID:20150110051700</text>
      </comment>
      <comment id="smi:local/e88d54c7-a28d-40d4-9802-34c661c556d7">
        <text>OLDACT:REG 15-01-10 01:02 OP:mu   STATUS:               ID:20150110051700</text>
      </comment>
      <origin publicID="smi:local/3afe630a-d62e-4539-94c1-53a53d01fbe4">
        <time>
          <value>2015-01-10T05:17:30.400000Z</value>
        </time>
        <latitude>
          <value>10.352</value>
        </latitude>
        <longitude>
          <value>-62.472</value>
        </longitude>
        <depth>
          <value>19.3</value>
        </depth>
        <quality>
          <associatedPhaseCount>24</associatedPhaseCount>
          <standardError>0.6</standardError>
          <azimuthalGap>94.0</azimuthalGap>
        </quality>
        <creationInfo>
          <agencyID>FUN</agencyID>
          <author>leo</author>
          <creationTime>2015-01-10T05:17:00.000000Z</creationTime>
        </creationInfo>
        <arrival publicID="smi:local/6586d473-69a4-45fb-8d49-cef520c40d36">
          <pickID>smi:local/a47328ee-83e7-4d0a-a544-10f943fd4921</pickID>
          <phase>P</phase>
          <azimuth>291.0</azimuth>
          <timeResidual>-0.8</timeResidual>
          <timeWeight>1.0</timeWeight>
        </arrival>
        <arrival publicID="smi:local/a174d434-4030-4e6e-a5fc-196667a66d87">
          <pickID>smi:local/2ac4547e-cb1a-41d7-9d8c-721a7ad24053</pickID>
          <phase>S</phase>
          <azimuth>291.0</azimuth>
          <timeResidual>-0.16</timeResidual>
          <timeWeight>1.0</timeWeight>
        </arrival>
        <arrival publicID="smi:local/4346d29f-502f-4b67-8870-8901d7252f0a">
          <pickID>smi:local/d09770b7-59eb-4df9-b665-76b5d8670bc8</pickID>
          <phase>P</phase>
          <azimuth>74.0</azimuth>
          <timeResidual>-0.18</timeResidual>
          <timeWeight>1.0</timeWeight>
        </arrival>
        <arrival publicID="smi:local/e63033dc-9c77-48d3-a9ce-59fc6ae2b6ba">
          <pickID>smi:local/703191c1-6feb-4c8d-ada0-e10f43fb7010</pickID>
          <phase>S</phase>
          <azimuth>74.0</azimuth>
          <timeResidual>-0.32</timeResidual>
          <timeWeight>1.0</timeWeight>
        </arrival>
        <arrival publicID="smi:local/fd709baa-fbe5-4b50-9910-40dfc1cba52d">
          <pickID>smi:local/079826eb-e577-4df8-b174-71e812dd4c13</pickID>
          <phase>P</phase>
          <azimuth>216.0</azimuth>
          <timeResidual>-0.08</timeResidual>
          <timeWeight>1.0</timeWeight>
        </arrival>
        <arrival publicID="smi:local/99c52c19-fb80-4b2c-8850-82b795bf46fc">
          <pickID>smi:local/32ba8f65-5bd8-4d79-a65a-b5f953c737c6</pickID>
          <phase>S</phase>
          <azimuth>216.0</azimuth>
          <timeResidual>0.01</timeResidual>
          <timeWeight>1.0</timeWeight>
        </arrival>
        <arrival publicID="smi:local/f3681aac-a450-4f2e-891c-5833005cf1e6">
          <pickID>smi:local/81c4d484-62f3-4947-8e2b-483c0216ceb6</pickID>
          <phase>P</phase>
          <azimuth>277.0</azimuth>
          <timeResidual>0.03</timeResidual>
          <timeWeight>1.0</timeWeight>
        </arrival>
        <arrival publicID="smi:local/198a4f9a-126c-4730-a1eb-e02fe8753334">
          <pickID>smi:local/b7efd8ee-7a12-422c-a0d3-79ad0a2f7397</pickID>
          <phase>P</phase>
          <azimuth>273.0</azimuth>
          <timeResidual>-0.52</timeResidual>
          <timeWeight>1.0</timeWeight>
        </arrival>
        <arrival publicID="smi:local/1a2d7380-48a8-4d10-9527-02edc09cce92">
          <pickID>smi:local/524fcfd1-97d1-4c33-8bfb-78d2994f3bae</pickID>
          <phase>S</phase>
          <azimuth>273.0</azimuth>
          <timeResidual>-0.37</timeResidual>
          <timeWeight>1.0</timeWeight>
        </arrival>
        <arrival publicID="smi:local/dc016792-6207-4cc0-b65d-f6dfa0e07c92">
          <pickID>smi:local/0654ff20-1f56-4151-a294-a5225d00c5c3</pickID>
          <phase>P</phase>
          <azimuth>24.0</azimuth>
          <timeResidual>0.53</timeResidual>
          <timeWeight>1.0</timeWeight>
        </arrival>
        <arrival publicID="smi:local/e20c3bd2-d6bd-4255-9d8e-41bbbdb1398e">
          <pickID>smi:local/dbdeecde-7115-4a19-a95a-cf5f6ff688a1</pickID>
          <phase>P</phase>
          <azimuth>265.0</azimuth>
          <timeResidual>-0.9</timeResidual>
          <timeWeight>1.0</timeWeight>
        </arrival>
        <arrival publicID="smi:local/940aaeaa-d99b-40e7-b8fa-887f7ea13459">
          <pickID>smi:local/6d807dab-bc90-48ac-990b-28dbaf56bffa</pickID>
          <phase>S</phase>
          <azimuth>265.0</azimuth>
          <timeResidual>-0.41</timeResidual>
          <timeWeight>1.0</timeWeight>
        </arrival>
        <arrival publicID="smi:local/0f9c3e37-8b3f-4c40-9835-037254f2aa9e">
          <pickID>smi:local/0e7b85c0-00a7-4311-a085-23689f2c13f6</pickID>
          <phase>P</phase>
          <azimuth>164.0</azimuth>
          <timeResidual>-0.5</timeResidual>
          <timeWeight>1.0</timeWeight>
        </arrival>
        <arrival publicID="smi:local/8ae0fa4e-d337-4ff0-a3b2-39ab28d6f7ef">
          <pickID>smi:local/edbc7733-de12-4516-b788-1d6112258df4</pickID>
          <phase>S</phase>
          <azimuth>164.0</azimuth>
          <timeResidual>-0.05</timeResidual>
          <timeWeight>1.0</timeWeight>
        </arrival>
        <arrival publicID="smi:local/5a7456d9-7cd8-4e86-985a-51bb3deb03e7">
          <pickID>smi:local/e5d65d32-8f09-4bef-9921-ed5367c37d71</pickID>
          <phase>P</phase>
          <azimuth>272.0</azimuth>
          <timeResidual>0.73</timeResidual>
          <timeWeight>1.0</timeWeight>
        </arrival>
        <arrival publicID="smi:local/587625bd-5e87-4125-a7dc-3b76e29a388a">
          <pickID>smi:local/0892a236-0346-41e0-9274-5eb39042a004</pickID>
          <phase>S</phase>
          <azimuth>272.0</azimuth>
          <timeResidual>0.23</timeResidual>
          <timeWeight>1.0</timeWeight>
        </arrival>
        <arrival publicID="smi:local/798a864c-7640-4eac-84fd-4b79a62ab7b9">
          <pickID>smi:local/7b9fdddb-2295-4685-a941-86132cd25192</pickID>
          <phase>P</phase>
          <azimuth>254.0</azimuth>
          <timeResidual>0.13</timeResidual>
          <timeWeight>1.0</timeWeight>
        </arrival>
        <arrival publicID="smi:local/64804056-c637-4a78-9b6c-5b4b84eb1050">
          <pickID>smi:local/2ec75b03-a02e-47c7-8e03-c7dd0cab0510</pickID>
          <phase>S</phase>
          <azimuth>254.0</azimuth>
          <timeResidual>-0.39</timeResidual>
          <timeWeight>1.0</timeWeight>
        </arrival>
        <arrival publicID="smi:local/2683de0f-0985-4cd4-a673-50c225d29080">
          <pickID>smi:local/3648637d-7909-425e-8672-72a0605ecd56</pickID>
          <phase>P</phase>
          <azimuth>272.0</azimuth>
          <timeResidual>0.03</timeResidual>
          <timeWeight>1.0</timeWeight>
        </arrival>
        <arrival publicID="smi:local/7ecdbf49-9149-46ea-8251-424d0774d253">
          <pickID>smi:local/ac77775e-1390-4572-bf6b-db684c9e1fac</pickID>
          <phase>P</phase>
          <azimuth>268.0</azimuth>
          <timeResidual>0.01</timeResidual>
          <timeWeight>1.0</timeWeight>
        </arrival>
        <arrival publicID="smi:local/2d7a8233-0c45-4a9e-a22e-73a3cddd9741">
          <pickID>smi:local/790a7ee4-5f21-42d9-bd3b-20cf5ddf8199</pickID>
          <phase>S</phase>
          <azimuth>268.0</azimuth>
          <timeResidual>-0.62</timeResidual>
          <timeWeight>1.0</timeWeight>
        </arrival>
        <arrival publicID="smi:local/77e4b451-edb1-4115-9bb3-9c40bcdd32ec">
          <pickID>smi:local/b20b103b-7eef-42f2-b46c-3767c77b2cc8</pickID>
          <phase>P</phase>
          <azimuth>167.0</azimuth>
          <timeResidual>-0.78</timeResidual>
          <timeWeight>1.0</timeWeight>
        </arrival>
        <arrival publicID="smi:local/05e273dd-978a-4c61-982f-0f5ea9ea9781">
          <pickID>smi:local/8ba91714-d32a-4203-ab4a-3f1e63b039ed</pickID>
          <phase>P</phase>
          <azimuth>272.0</azimuth>
          <timeResidual>-0.2</timeResidual>
          <timeWeight>1.0</timeWeight>
        </arrival>
        <arrival publicID="smi:local/be4faec4-a839-4a1a-9845-24bc59c75ca8">
          <pickID>smi:local/eb0dbdc0-911a-49ef-bec5-e0640023fb10</pickID>
          <phase>S</phase>
          <azimuth>272.0</azimuth>
          <timeResidual>-0.9</timeResidual>
          <timeWeight>1.0</timeWeight>
        </arrival>
        <arrival publicID="smi:local/cd9b1206-ffae-4c6c-859a-7352ec75deb1">
          <pickID>smi:local/96acbc52-a382-4da7-a9e9-df99df5193c2</pickID>
          <phase>P</phase>
          <azimuth>256.0</azimuth>
          <timeResidual>-0.26</timeResidual>
          <timeWeight>1.0</timeWeight>
        </arrival>
        <arrival publicID="smi:local/96f6a9e8-3028-411d-a28a-ff7f72a30419">
          <pickID>smi:local/dc086b52-144a-4731-b137-a95b206e37fe</pickID>
          <phase>P</phase>
          <azimuth>266.0</azimuth>
          <timeResidual>0.01</timeResidual>
          <timeWeight>1.0</timeWeight>
        </arrival>
        <arrival publicID="smi:local/af2aa6d8-3118-41a5-8314-6eea0e4c1a68">
          <pickID>smi:local/8a432729-a8f8-410c-b720-0d07e1c730cc</pickID>
          <phase>P</phase>
          <azimuth>277.0</azimuth>
          <timeResidual>-0.4</timeResidual>
          <timeWeight>1.0</timeWeight>
        </arrival>
        <arrival publicID="smi:local/00d11989-6f1c-4edc-95f9-f7b0c5d5426c">
          <pickID>smi:local/4754da26-e0a9-42f9-8163-5691d478f720</pickID>
          <phase>P</phase>
          <azimuth>264.0</azimuth>
          <timeResidual>1.7</timeResidual>
          <timeWeight>1.0</timeWeight>
        </arrival>
        <arrival publicID="smi:local/c7696919-f9d4-4888-b9e1-3244182cab3c">
          <pickID>smi:local/c7b6e69a-905c-40ce-be54-75b7ca099f3c</pickID>
          <phase>P</phase>
          <azimuth>227.0</azimuth>
          <timeResidual>0.23</timeResidual>
          <timeWeight>1.0</timeWeight>
        </arrival>
        <arrival publicID="smi:local/3cfb0a0e-87d9-487d-a247-f51c3adbb398">
          <pickID>smi:local/a73bb034-b64b-4087-803c-98bafcf521d4</pickID>
          <phase>P</phase>
          <azimuth>245.0</azimuth>
          <timeResidual>1.04</timeResidual>
          <timeWeight>1.0</timeWeight>
        </arrival>
        <arrival publicID="smi:local/136d935e-f474-4336-8769-39798b3fcab5">
          <pickID>smi:local/15f51588-8a91-4fc2-82ca-250becbbf2fe</pickID>
          <phase>P</phase>
          <azimuth>265.0</azimuth>
          <timeResidual>1.67</timeResidual>
          <timeWeight>1.0</timeWeight>
        </arrival>
        <arrival publicID="smi:local/3e6f7f0a-46c6-45ce-909b-a5cb00183746">
          <pickID>smi:local/32653dec-9e5d-458c-81ab-b348c0ab24ef</pickID>
          <phase>P</phase>
          <azimuth>260.0</azimuth>
          <timeResidual>0.66</timeResidual>
          <timeWeight>1.0</timeWeight>
        </arrival>
        <arrival publicID="smi:local/e712a64b-dabe-41ca-8287-ba0c3c14bd15">
          <pickID>smi:local/9d6368d7-f9d6-44b0-a3b2-d4cd79d65346</pickID>
          <phase>P</phase>
          <azimuth>248.0</azimuth>
          <timeResidual>1.08</timeResidual>
          <timeWeight>1.0</timeWeight>
        </arrival>
        <arrival publicID="smi:local/8a434955-4fd6-4ebd-9f37-3d7b6a7eca79">
          <pickID>smi:local/90df0150-7875-404b-95c2-59612b129588</pickID>
          <phase>P</phase>
          <azimuth>260.0</azimuth>
          <timeResidual>-0.16</timeResidual>
          <timeWeight>1.0</timeWeight>
        </arrival>
      </origin>
      <magnitude publicID="smi:local/167fcb8e-082f-44a1-9b2f-be059830ba60">
        <mag>
          <value>4.0</value>
        </mag>
        <type>MW</type>
        <creationInfo>
          <agencyID>FUN</agencyID>
        </creationInfo>
      </magnitude>
      <pick publicID="smi:local/a47328ee-83e7-4d0a-a544-10f943fd4921">
        <time>
          <value>2015-01-10T05:17:43.700000Z</value>
        </time>
        <waveformID channelCode="BHZ" locationCode=" " networkCode="UK" stationCode="CRUV"></waveformID>
        <onset>emergent</onset>
        <phaseHint>P</phaseHint>
        <polarity>negative</polarity>
        <evaluationMode>automatic</evaluationMode>
      </pick>
      <pick publicID="smi:local/2ac4547e-cb1a-41d7-9d8c-721a7ad24053">
        <time>
          <value>2015-01-10T05:17:54.760000Z</value>
        </time>
        <waveformID channelCode="BHN" locationCode=" " networkCode="UK" stationCode="CRUV"></waveformID>
        <onset>emergent</onset>
        <phaseHint>S</phaseHint>
        <polarity>undecidable</polarity>
        <evaluationMode>automatic</evaluationMode>
      </pick>
      <pick publicID="smi:local/d09770b7-59eb-4df9-b665-76b5d8670bc8">
        <time>
          <value>2015-01-10T05:17:50.300000Z</value>
        </time>
        <waveformID channelCode="BHZ" locationCode=" " networkCode="UK" stationCode="TRN"></waveformID>
        <onset>emergent</onset>
        <phaseHint>P</phaseHint>
        <polarity>negative</polarity>
        <evaluationMode>automatic</evaluationMode>
      </pick>
      <pick publicID="smi:local/703191c1-6feb-4c8d-ada0-e10f43fb7010">
        <time>
          <value>2015-01-10T05:18:04.990000Z</value>
        </time>
        <waveformID channelCode="BHN" locationCode=" " networkCode="UK" stationCode="TRN"></waveformID>
        <onset>emergent</onset>
        <phaseHint>S</phaseHint>
        <polarity>undecidable</polarity>
        <evaluationMode>automatic</evaluationMode>
      </pick>
      <pick publicID="smi:local/079826eb-e577-4df8-b174-71e812dd4c13">
        <time>
          <value>2015-01-10T05:17:56.920000Z</value>
        </time>
        <waveformID channelCode="BHZ" locationCode=" " networkCode="UK" stationCode="ORIV"></waveformID>
        <onset>emergent</onset>
        <phaseHint>P</phaseHint>
        <polarity>undecidable</polarity>
        <evaluationMode>automatic</evaluationMode>
      </pick>
      <pick publicID="smi:local/32ba8f65-5bd8-4d79-a65a-b5f953c737c6">
        <time>
          <value>2015-01-10T05:18:16.680000Z</value>
        </time>
        <waveformID channelCode="BHN" locationCode=" " networkCode="UK" stationCode="ORIV"></waveformID>
        <onset>emergent</onset>
        <phaseHint>S</phaseHint>
        <polarity>undecidable</polarity>
        <evaluationMode>automatic</evaluationMode>
      </pick>
      <pick publicID="smi:local/81c4d484-62f3-4947-8e2b-483c0216ceb6">
        <time>
          <value>2015-01-10T05:17:58.730000Z</value>
        </time>
        <waveformID channelCode="BHZ" locationCode=" " networkCode="UK" stationCode="MAN"></waveformID>
        <onset>emergent</onset>
        <phaseHint>P</phaseHint>
        <polarity>undecidable</polarity>
        <evaluationMode>automatic</evaluationMode>
      </pick>
      <pick publicID="smi:local/b7efd8ee-7a12-422c-a0d3-79ad0a2f7397">
        <time>
          <value>2015-01-10T05:17:58.100000Z</value>
        </time>
