 2015  110 0517 30.4 L  10.352 -62.472 19.3  FUN 24 0.6 4.0WFUN                1
 SPEC AVERAGE  MO 15.0 ST 21.3 OM  3.4 f0 2.17 R0.6500 AL 3.33 WI 31.4 MW  4.0 3
 SPEC SD       MO  0.2 ST 10.1 OM  0.4 f00.510 R0.1566 AL      WI      MW  0.1 3
 GAP= 94        1.76       5.8     3.4  7.1  0.7347E+01  0.1304E+02  0.2526E+02E
 SPEC TURVHH N MO 14.9 ST 19.0 OM  3.0 f0 2.28 R0.5842 AL 3.42 WI 35.7 MW  3.9 3
 SPEC TURVHH N T 51941 K 0.000 GD  588 VS 3.60 DE 3.00 Q0440.0 QA 0.70 Q1 0.00 3
 SPEC TACVHH N MO 15.0 ST 11.4 OM  3.1 f0 1.88 R0.7085 AL 2.26 WI 36.1 MW  3.9 3
 SPEC TACVHH N T 51921 K 0.000 GD  500 VS 3.60 DE 3.00 Q0440.0 QA 0.70 Q1 0.00 3
 SPEC RIOVHH N MO 14.7 ST 27.8 OM  3.1 f0 3.13 R0.4256 AL 3.07 WI 22.9 MW  3.7 3
 SPEC RIOVHH N T 51834 K 0.000 GD  263 VS 3.60 DE 3.00 Q0440.0 QA 0.70 Q1 0.00 3
 SPEC PCRVHH N MO 15.2 ST  8.6 OM  3.7 f0 1.39 R0.9583 AL 4.09 WI 37.4 MW  4.1 3
 SPEC PCRVHH N T 51823 K 0.000 GD  233 VS 3.60 DE 3.00 Q0440.0 QA 0.70 Q1 0.00 3
 SPEC ORIVHH N MO 15.3 ST 39.0 OM  3.9 f0 2.17 R0.6138 AL 3.08 WI 36.5 MW  4.2 3
 SPEC ORIVHH N T 51815 K 0.000 GD  176 VS 3.60 DE 3.00 Q0440.0 QA 0.70 Q1 0.00 3
 SPEC MERVHH N MO 15.0 ST 28.5 OM  3.2 f0 2.47 R0.5393 AL 3.65 WI 24.7 MW  3.9 3
 SPEC MERVHH N T 51912 K 0.000 GD  437 VS 3.60 DE 3.00 Q0440.0 QA 0.70 Q1 0.00 3
 SPEC CRUVHH N MO 15.1 ST 14.8 OM  4.0 f0 1.85 R0.7200 AL 3.72 WI 26.4 MW  4.0 3
 SPEC CRUVHH N T 51752 K 0.000 GD 85.4 VS 3.60 DE 3.00 Q0440.0 QA 0.70 Q1 0.00 3
 ACTION:UP  15-06-26 14:40 OP:leo  STATUS:               ID:20150110051700     I
 OLDACT:UP  15-06-26 14:18 OP:leo  STATUS:               ID:20150110051700     3
 OLDACT:UP  15-01-10 01:15 OP:mu   STATUS:               ID:20150110051700     3
 OLDACT:UP  15-01-10 01:11 OP:mu   STATUS:               ID:20150110051700     3
 OLDACT:UP  15-01-10 01:10 OP:mu   STATUS:               ID:20150110051700     3
 OLDACT:UP  15-01-10 01:08 OP:mu   STATUS:               ID:20150110051700     3
 OLDACT:UP  15-01-10 01:06 OP:mu   STATUS:               ID:20150110051700     3
 OLDACT:UP  15-01-10 01:05 OP:mu   STATUS:               ID:20150110051700     3
 OLDACT:UP  15-01-10 01:03 OP:mu   STATUS:               ID:20150110051700     3
 OLDACT:REG 15-01-10 01:02 OP:mu   STATUS:               ID:20150110051700     3
 2015-01-10-0517-00S.MAN___161                                                 6
 STAT SP IPHASW D HRMM SECON CODA AMPLIT PERI AZIMU VELO AIN AR TRES W  DIS CAZ7
 CRUV HZ EP     D  517 43.70                              99   -0.8010 83.2 291 
 CRUV HN ES        517 54.76                              99   -0.1610 83.2 291 
 TRN  BZ EP     D  517 50.30                              96   -0.1810  122  74 
 TRN  BN ES        518  4.99                              96   -0.3210  122  74 
 ORIV HZ EP        517 56.92                              49   -0.0810  175 216 
 ORIV HN ES        518 16.68                              49    0.0110  175 216 
 MAN  EZ EP        517 58.73                              49    0.0310  189 277 
 CUMV EZ EP        517 58.10                              49   -0.5210  189 273 
 CUMV EN ES        518 19.11                              49   -0.3710  189 273 
 GRGR BZ EP        518  2.49                              49    0.5310  216  24 
 PCRV HZ EP        518  3.07                              49   -0.9010  233 265 
 PCRV HN ES        518 28.39                              49   -0.4110  233 265 
 RIOV HZ EP        518  7.14                              49   -0.5010  263 164 
 RIOV HN ES        518 35.14                              49   -0.0510  263 164 
 BIRV HZ EP        518 26.76                              49    0.7310  416 272 
 BIRV HN ES        519  7.41                              49    0.2310  416 272 
 MERV HZ EP     D  518 28.67                              49    0.1310  437 254 
 MERV HN ES        519 11.16                              49   -0.3910  437 254 
 FUNV HZ EP        518 33.28                              49    0.0310  475 272 
 TACV HZ EP        518 36.14                              49    0.0110  500 268 
 TACV HN ES        519 24.14                              49   -0.6210  500 268 
 LUEV HZ EP     C  518 36.83                              49   -0.7810  511 167 
 TURV HZ EP        518 46.51                              49   -0.2010  588 272 
 TURV HN ES        519 42.26                              49   -0.9010  588 272 
 BAUV HZ EP     D  518 51.63                              49   -0.2610  631 256 
 MAPV HZ EP        518 55.28                              49    0.0110  659 266 
 JACV HZ EP        518 59.89                              49   -0.4010  700 277 
 SANV HZ EP        519 11.74                              49    1.7010  780 264 
 PAYV HZ EP        519 11.29                              49    0.2310  790 227 
 ELOV HZ EP        519 20.05                              49    1.0410  856 245 
 TORV EZ EP        519 22.38                              49    1.6710  868 265 
 SDV  BZ EP        519 26.42                              49    0.6610  910 260 
 TAM  BZ EP        519 51.21                              49    1.0810 1114 248 
 AGIV EZ EP        519 28.49                              49   -0.1610  931 260 
                                                                                
