 2015  2 5 0704 12.9 L   8.296 -72.153  5.0F FUN 20 0.9 4.3WFUN                1
   35.8500   71.2500   68.8300                               0    FUN FOCMEC   F
 SPEC AVERAGE  MO 15.5 ST151.8 OM  4.1 f0 2.62 R0.5604 AL 1.24 WI 31.9 MW  4.3 3
 SPEC SD       MO  0.2 ST142.4 OM  0.2 f00.846 R0.1657 AL      WI      MW  0.1 3
 GAP=225        2.26       5.8     6.2  0.0  0.1186E+02  0.0000E+00  0.0000E+00E
 SPEC TURVHH N MO 15.8 ST475.5 OM  4.3 f0 3.36 R0.3964 AL 2.11 WI 46.9 MW  4.5 3
 SPEC TURVHH N T 7 613 K 0.000 GD  230 VS 3.60 DE 3.00 Q0440.0 QA 0.70 VS 3.60 3
 SPEC SOCVHH N MO 15.5 ST 53.7 OM  4.3 f0 2.02 R0.6594 AL 1.11 WI 15.8 MW  4.3 3
 SPEC SOCVHH N T 7 451 K 0.000 GD  119 VS 3.60 DE 3.00 Q0440.0 QA 0.70 VS 3.60 3
 SPEC SIQVHH N MO 15.6 ST 52.4 OM  4.2 f0 1.85 R0.7200 AL 1.28 WI 33.9 MW  4.4 3
 SPEC SIQVHH N T 7 543 K 0.000 GD  191 VS 3.60 DE 3.00 Q0440.0 QA 0.70 VS 3.60 3
 SPEC SANVHH N MO 15.6 ST 71.3 OM  4.2 f0 2.10 R0.6343 AL 0.61 WI 26.3 MW  4.4 3
 SPEC SANVHH N T 7 532 K 0.000 GD  178 VS 3.60 DE 3.00 Q0440.0 QA 0.70 VS 3.60 3
 SPEC MONVHH N MO 15.3 ST 30.3 OM  3.8 f0 2.01 R0.6627 AL 1.55 WI 33.1 MW  4.1 3
 SPEC MONVHH N T 7 557 K 0.000 GD  216 VS 3.60 DE 3.00 Q0440.0 QA 0.70 VS 3.60 3
 SPEC FUNVHH N MO 15.8 ST 39.0 OM  4.2 f0 1.53 R0.8706 AL 0.89 WI 49.9 MW  4.5 3
 SPEC FUNVHH N T 7 638 K 0.000 GD  251 VS 3.60 DE 3.00 Q0440.0 QA 0.70 VS 3.60 3
 SPEC ELOVHH N MO 15.6 ST289.2 OM  4.2 f0 3.33 R0.4000 AL 1.76 WI 32.5 MW  4.4 3
 SPEC ELOVHH N T 7 533 K 0.000 GD  181 VS 3.60 DE 3.00 Q0440.0 QA 0.70 VS 3.60 3
 SPEC DABVHH N MO 15.1 ST 25.6 OM  3.7 f0 2.17 R0.6138 AL 0.73 WI 24.8 MW  4.0 3
 SPEC DABVHH N T 7 536 K 0.000 GD  183 VS 3.60 DE 3.00 Q0440.0 QA 0.70 VS 3.60 3
 SPEC CURVHH N MO 15.3 ST317.0 OM  3.9 f0 4.37 R0.3048 AL 1.18 WI 25.1 MW  4.2 3
 SPEC CURVHH N T 7 528 K 0.000 GD  175 VS 3.60 DE 3.00 Q0440.0 QA 0.70 VS 3.60 3
 SPEC BIRVHH N MO 15.4 ST193.9 OM  3.8 f0 3.50 R0.3806 AL 1.13 WI 39.3 MW  4.2 3
 SPEC BIRVHH N T 7 649 K 0.000 GD  262 VS 3.60 DE 3.00 Q0440.0 QA 0.70 VS 3.60 3
 SPEC BAUVHH N MO 15.6 ST121.9 OM  4.1 f0 2.55 R0.5224 AL 1.34 WI 22.9 MW  4.3 3
 SPEC BAUVHH N T 7 559 K 0.000 GD  214 VS 3.60 DE 3.00 Q0440.0 QA 0.70 VS 3.60 3
 ACTION:UP  15-02-05 14:15 OP:leo  STATUS:               ID:20150205070300     I
 OLDACT:UP  15-02-05 02:54 OP:re   STATUS:               ID:20150205070300     3
 OLDACT:UP  15-02-05 02:52 OP:re   STATUS:               ID:20150205070300     3
 OLDACT:UP  15-02-05 02:52 OP:re   STATUS:               ID:20150205070300     3
 OLDACT:UP  15-02-05 02:49 OP:re   STATUS:               ID:20150205070300     3
 OLDACT:UP  15-02-05 02:47 OP:re   STATUS:               ID:20150205070300     3
 OLDACT:REG 15-02-05 02:47 OP:re   STATUS:               ID:20150205070300     3
 2015-02-05-0703-00S.MAN___161                                                 6
 STAT SP IPHASW D HRMM SECON CODA AMPLIT PERI AZIMU VELO AIN AR TRES W  DIS CAZ7
 TACV HZ EP        7 5 32.40                              43                    
 TACV HN ES        7 6 31.44                              43                    
 SOCV HZ EP     D  7 4 35.30                              65   -1.3110  143  90 
 SOCV HN ES        7 4 51.77                              65   -2.3510  143  90 
 AGIV EZ EP     D  7 4 37.70                              65   -1.7410  159  67 
 AGIV EN ES        7 4 58.08                              65   -0.9710  159  67 
 SDV  BZ EP     D  7 4 41.14                              43   -0.6610  180  69 
 SDV  B1 ES        7 5  1.79                              43   -1.3710  180  69 
 MCQV HZ EP     C  7 4 43.61                              43   -0.2810  198 348 
 MCQV HN ES        7 5  7.04                              43    0.2410  198 348 
 CURV HZ EP     C  7 4 56.41                              43   -0.6110  307  52 
 CURV HN ES        7 5 29.74                              43    0.1010  307  52 
 SANV HZ EP        7 4 58.55                              43    0.2310  317  65 
 SANV HN ES        7 5 33.75                              43    1.8510  317  65 
 ELOV HZ EP        7 4 59.56                              43    0.1210  328 116 
 ELOV HN ES        7 5 34.81                              43    0.9510  328 116 
 DABV HZ EP     C  7 4 59.68                              43   -0.6410  335  30 
 DABV HN ES        7 5 35.05                              43   -0.3210  335  30 
 SIQV HZ EP        7 5  4.25                              43    0.1210  366  45 
 SIQV HN ES        7 5 43.91                              43    1.9010  366  45 
 MAPV HZ EP        7 5 13.31                              43    0.2510  440  67 
 BAUV HN ES        7 6  1.53                              43    0.2910  458  81 
 MONV HZ EP        7 5 16.00                              43   -0.6210  470  30 
 MONV HN ES        7 6  3.45                              43   -0.3010  470  30 
 JACV HZ EP        7 5 18.12                              43    0.5510  478  49 
 TURV HZ EP        7 5 24.02                              43    0.1610  530  63 
 TURV HN ES        7 6 16.06                              43   -0.2810  530  63 
 PAYV HZ EP     D  7 5 30.92                              43   -0.1510  590 122 
 PAYV HN ES        7 6 30.01                              43    1.1310  590 122 
 CARV HZ EP        7 5 34.79                              43   -0.4410  623  67 
 CARV HN ES        7 6 36.35                              43    0.2310  623  67 
 FUNV HZ EP        7 5 36.52                              43    0.0410  634  67 
 FUNV HN ES        7 6 40.09                              43    1.7910  634  67 
 MERV HZ EP        7 5 38.57                              43   -0.0810  653  80 
 MERV HN ES        7 6 42.38                              43    0.3110  653  80 
 BIRV HZ EP        7 5 43.75                              43    0.6610  690  69 
 BIRV HN ES        7 6 51.36                              43    1.5510  690  69 
 BAUV HZ EP     D  7 5 14.82                              43   -0.3610  458  81 
                                                                                
