 2018  4 1 1300 20.5 L  10.161 -67.740  2.9  FUN  3 0.5 2.0WFUN                1
 2018-04-01-1259-00S.MAN___174                                                 6
 STAT SP IPHASW D HRMM SECON CODA AMPLIT PERI AZIMU VELO AIN AR TRES W  DIS CAZ7
 BENV HZ EP       13 0 26.14                              97    0.9010 26.9 145 
 TURV HZ EP       13 0 26.54                              95    0.1210 33.7 341 
 BAUV HZ EP       13 0 43.95                              65    0.3210  139 194 
 
                                                                                
