 2018  4 2 1910 48.7 L  10.808 -67.518 13.1  FUN  5 0.6 2.3WFUN                1
 STAT SP IPHASW D HRMM SECON CODA AMPLIT PERI AZIMU VELO AIN AR TRES W  DIS CAZ7
 TURV HZ EP       1910 58.31                              97    0.5210 53.0 222 
 TACV HZ EP       1911  4.24                              93    0.3110 91.6 144 
 BENV HZ EP       1911  4.24                              93   -0.0810 94.0 185 
 TERV HZ EP       1911 19.24                              49   -0.3510  206 243 
 BAUV HZ EP       1911 21.50                              49    0.9410  214 196 

                                                                                
