 2018  4 2 1624  8.2 L  10.668 -67.575  5.0F FUN  5 0.7 2.1WFUN                1
 STAT SP IPHASW D HRMM SECON CODA AMPLIT PERI AZIMU VELO AIN AR TRES W  DIS CAZ7
 TURV HZ EP       1624 14.83                              98   -0.0110 37.7 230 
 BENV HZ EP       1624 20.54                              65   -1.0510 78.1 182 
 TACV HZ EP       1624 22.03                              65   -0.4710 83.9 134 
 MAPV HN EP       1624 30.08                              65   -0.3310  134 226 
 BAUV HZ EP       1624 39.51                              43    0.5010  198 195 

                                                                                
