 2018  424 0357 19.0 L  10.224 -67.228 10.8  FUN 13 0.7 3.2WFUN                1
 STAT SP IPHASW D HRMM SECON CODA AMPLIT PERI AZIMU VELO AIN AR TRES W  DIS CAZ7
 TACV HZ IP     D  357 23.10                             105   -0.4610 24.0 113 
 BENV HZ EP     D  357 27.92                              94    0.2810 49.9 235 
 FUNV HZ IP     C  357 27.81                              93   -0.3710 53.2  59 
 TURV HZ IP     D  357 30.47                              92   -0.5410 71.4 290 
 MAPV HZ EP        357 43.18                              91    1.0210  142 252 
 BAUV HZ EP        357 45.43                              49   -0.0810  167 212 
 JACV HZ EP        357 49.50                              49    0.1010  200 299 
 TERV HZ EP        357 52.61                              49    1.0710  217 263 
 SIQV HZ EP        358  0.65                              49    0.7810  286 280 
 PCRV HZ EP        358  1.63                              49    1.4410  289  91 
 CACV HZ EP     C  358  4.75                              49   -0.3910  330 156 
 SDV  BZ EP        358 13.98                              49    0.0210  402 249 
 SOCV HZ EP        358 20.22                              49    0.3110  453 242 
                                                                                 
