 2018  427 0844 50.4 L  10.350 -68.067  9.0  FUN 22 0.8 4.7WFUN                1
 STAT SP IPHASW D HRMM SECON CODA AMPLIT PERI AZIMU VELO AIN AR TRES W  DIS CAZ7
 TURV HZ EP     C  844 54.92                              65   -0.4510 27.2  66 
 BENV HZ EP     C  845  1.36                              65   -0.3510 66.8 130 
 TACV HZ EP     D  845  9.56                              65    0.0010  116 102 
 JACV HZ EP     D  845 11.51                              65    1.9110  117 314 
 TERV HZ EP        845 10.14                              65   -1.6610  130 251 
 FUNV HZ EP     D  845 12.64                              65   -0.4210  138  84 
 SIQV HZ EP     D  845 20.74                              43    0.4810  193 280 
 HATO BZ EP        845 23.91                              43   -0.0510  225 334 
 SDV  BZ EP     D  845 37.05                              43    0.8010  325 240 
 PCRV HZ EP     C  845 44.08                              43    1.1910  381  93 
 SOCV HZ EP     D  845 43.71                              43    0.7110  382 234 
 CACV HZ EP     C  845 43.23                              43   -0.5410  389 144 
 CUMV EZ EP        845 48.03                              43    0.0110  424  89 
 MCQV HZ EP        845 56.43                              43    0.3910  491 267 
 CRUV HZ EP        846  1.61                              43    0.1110  535  86 
 CAPV HZ EP        846  2.89                              43    0.4910  542 240 
                                                                                
